{"name":"Quinsou","stars":1,"street":"33 r. de l'Abbé-Grégoire","postalCode":"75006","city":"Paris"}
{"name":"Girardin","stars":1,"street":"19 Rue des Têtes","postalCode":"68000","city":"Colmar","picture":"https://restaurant.michelin.fr/sites/mtpb2c_fr/files/styles/poi_detail_landscape/public/jfSEyKwVcy3mKIQQ.jpg?itok=DNthoSst"}
{"name":"Le George","stars":1,"street":"31 Avenue George V","postalCode":"75008","city":"Paris","picture":"https://restaurant.michelin.fr/sites/mtpb2c_fr/files/styles/poi_detail_landscape/public/Le%20George.jpg?itok=by-ny7fE"}
{"name":"Restaurant de Lauzun","stars":1,"street":"3 bd de l'Esplanade","postalCode":"34150","city":"Gignac"}
{"name":"La Table Saint-Crescent","stars":1,"street":"route de Perpignan","postalCode":"11100","city":"Narbonne","picture":"https://restaurant.michelin.fr/sites/mtpb2c_fr/files/styles/poi_detail_landscape/public/5321_1_1.jpg?itok=ZjqK6fd4"}
{"name":"La Table d'Olivier","stars":1,"street":"3 r. St-Ambroise","postalCode":"19100","city":"Brive-la-Gaillarde","picture":"https://restaurant.michelin.fr/sites/mtpb2c_fr/files/styles/poi_detail_landscape/public/cCRYi4N-gqcRW2fw.jpg?itok=VP_urjjr"}
{"name":"Le Puits St-Jacques","stars":2,"street":"av. Victor-Capoul","postalCode":"32600","city":"Pujaudran","picture":"https://restaurant.michelin.fr/sites/mtpb2c_fr/files/styles/poi_detail_landscape/public/3850_1_0.jpg?itok=S5PjLpTJ"}
{"name":"Table des Frères Ibarboure","stars":1,"street":"chemin Ttalienea","postalCode":"64210","city":"Bidart","picture":"https://restaurant.michelin.fr/sites/mtpb2c_fr/files/styles/poi_detail_landscape/public/1128_1_1.jpg?itok=Z2HCBDH1"}
{"name":"Auberge du Vieux Puits","stars":3,"street":"5 Avenue Saint-Victor","postalCode":"11360","city":"Fontjoncouse","picture":"https://restaurant.michelin.fr/sites/mtpb2c_fr/files/styles/poi_detail_landscape/public/Auberge%20du%20vieux%20puit.jpg?itok=wwlBSgIJ"}
{"name":"L'Atelier de Joël Robuchon - Étoile","stars":1,"street":"133 av. des Champs-Élysées","postalCode":"75008","city":"Paris","picture":"https://restaurant.michelin.fr/sites/mtpb2c_fr/files/styles/poi_detail_landscape/public/jgSIa79aYpoWVQ0A.jpg?itok=vCaYw3Ee"}
{"name":"Takao Takano","stars":2,"street":"33 Rue Malesherbes","postalCode":"69006","city":"Lyon 06","picture":"https://restaurant.michelin.fr/sites/mtpb2c_fr/files/styles/poi_detail_landscape/public/MZQ9mxdO0M1f-NqQ.jpg?itok=zQqJq5n2"}
{"name":"La Grenouillère","stars":2,"street":"19 r. de la Grenouillère","postalCode":"62170","city":"La Madelaine-sous-Montreuil"}
{"name":"L'O des Vignes","stars":1,"street":"r. du Bourg","postalCode":"71960","city":"Fuissé","picture":"https://restaurant.michelin.fr/sites/mtpb2c_fr/files/styles/poi_detail_landscape/public/o%20des%20vignes.jpg?itok=Kr5V78Ma"}
{"name":"Stéphane Derbord","stars":1,"street":"10 Place du Président Wilson","postalCode":"21000","city":"Dijon","picture":"https://restaurant.michelin.fr/sites/mtpb2c_fr/files/styles/poi_detail_landscape/public/sCQ8ysAVXnz2sxCg.jpg?itok=6kSAu70-"}
{"name":"L'Oustau de Baumanière","stars":2,"street":"Village des Baux-de-Provence","postalCode":"13520","city":"Les Baux-de-Provence","picture":"https://restaurant.michelin.fr/sites/mtpb2c_fr/files/styles/poi_detail_landscape/public/Henk%20aout%202012%20%2846%29-min.JPG?itok=GPl_mzl2"}
{"name":"Passage 53","stars":2,"street":"53 passage des Panoramas","postalCode":"75002","city":"Paris","picture":"https://restaurant.michelin.fr/sites/mtpb2c_fr/files/styles/poi_detail_landscape/public/VyTE6C1fp66o2Tbg.jpg?itok=DILITanG"}
{"name":"Le Vivarais","stars":1,"street":"5 avenue Expilly","postalCode":"07600","city":"VALS-LES-BAINS","picture":"https://restaurant.michelin.fr/sites/mtpb2c_fr/files/styles/poi_detail_landscape/public/Le-Vivarais_VALS-LES-BAINS_2_0.jpg?itok=t2z1zrS6"}
{"name":"La Côte Saint-Jacques","stars":2,"street":"14 faubourg de Paris","postalCode":"89300","city":"Joigny","picture":"https://restaurant.michelin.fr/sites/mtpb2c_fr/files/styles/poi_detail_landscape/public/1-%20Equipe%20de%20la%20C%C3%B4te%20Saint%20Jacques%40jeanmichellorain-min.jpg?itok=e_8PufQp"}
{"name":"La Gourmandière - La Table d'Olivier","stars":1,"street":"D126","postalCode":"56000","city":"Vannes","picture":"https://restaurant.michelin.fr/sites/mtpb2c_fr/files/styles/poi_detail_landscape/public/g7TpKx1Ja7jV84Sg.jpg?itok=SZf7qqPi"}
{"name":"Il Carpaccio","stars":1,"street":"37 avenue Hoche","postalCode":"75008","city":"Paris 08","picture":"https://restaurant.michelin.fr/sites/mtpb2c_fr/files/styles/poi_detail_landscape/public/AsSBqzhRxmLnZ3EQ.jpg?itok=ds0wL4v1"}
{"name":"Bruno","stars":1,"street":"2350 route des Arcs, Campagne Mariette","postalCode":"83510","city":"Lorgues","picture":"https://restaurant.michelin.fr/sites/mtpb2c_fr/files/styles/poi_detail_landscape/public/Bruno-Biblio-HD001.jpg?itok=OOrfHpSc"}
{"name":"Le St-Placide","stars":1,"street":"6 place du poncel","postalCode":"35400","city":"Saint-Malo","picture":"https://restaurant.michelin.fr/sites/mtpb2c_fr/files/styles/poi_detail_landscape/public/cNRqGSUHd263TovQ.jpg?itok=CFjmXXHt"}
{"name":"J.-M. Pérochon","stars":1,"street":"63 avenue de la Grand'Roche","postalCode":"85470","city":"Brétignolles-sur-Mer","picture":"https://restaurant.michelin.fr/sites/mtpb2c_fr/files/styles/poi_detail_landscape/public/HmTSKWc2c-pIRA5A.jpg?itok=h-mBmL4k"}
{"name":"Le Georges","stars":1,"street":"22 pl. des Épars","postalCode":"28000","city":"CHARTRES","picture":"https://restaurant.michelin.fr/sites/mtpb2c_fr/files/styles/poi_detail_landscape/public/jtRKKq34BsICk0NA.jpg?itok=BunFFGeF"}
{"name":"Radio","stars":1,"street":"43 av. P. et M.-Curie","postalCode":"63400","city":"Chamalières","picture":"https://restaurant.michelin.fr/sites/mtpb2c_fr/files/styles/poi_detail_landscape/public/8ed8w4OER-uQO29XYp4WkA.jpg?itok=4B3P0T9Z"}
{"name":"Les Bacchanales","stars":1,"street":"247 avenue de Provence","postalCode":"06140","city":"VENCE","picture":"https://restaurant.michelin.fr/sites/mtpb2c_fr/files/styles/poi_detail_landscape/public/DwQciamziBaj4tpw.jpg?itok=2NrsLEGo"}
{"name":"Domaine des Hauts de Loire","stars":2,"street":"79 rue Gilbert Navard","postalCode":"41150","city":"Onzain","picture":"https://restaurant.michelin.fr/sites/mtpb2c_fr/files/styles/poi_detail_landscape/public/Domaine%20hauts%20loire4.jpg?itok=Hq0HCHaa"}
{"name":"1920","stars":2,"street":"373 chemin des follières","postalCode":"74120","city":"Megève","picture":"https://restaurant.michelin.fr/sites/mtpb2c_fr/files/styles/poi_detail_landscape/public/MVE_031.jpg?itok=HtN4BIjp"}
{"name":"Le Brittany","stars":1,"street":"bd Ste-Barbe","postalCode":"29681","city":"Roscoff","picture":"https://restaurant.michelin.fr/sites/mtpb2c_fr/files/styles/poi_detail_landscape/public/F2Sfy128Qi2OPXhQ.jpg?itok=72kNN80u"}
{"name":"La Maison de Bournissac","stars":1,"street":"montée d'Eyragues","postalCode":"13550","city":"Les Paluds-des-Noves","picture":"https://restaurant.michelin.fr/sites/mtpb2c_fr/files/styles/poi_detail_landscape/public/12959_1_0.jpg?itok=5J3xjHUX"}
{"name":"Le Castellaras","stars":1,"street":"461 chemin Peymeyan","postalCode":"83440","city":"Fayence","picture":"https://restaurant.michelin.fr/sites/mtpb2c_fr/files/styles/poi_detail_landscape/public/rCRw6omX0v9WkwYA.jpg?itok=lb3AxeFa"}
{"name":"L'Arnsbourg","stars":1,"street":"Untermuhlthal","postalCode":"57230","city":"Baerenthal","picture":"https://restaurant.michelin.fr/sites/mtpb2c_fr/files/styles/poi_detail_landscape/public/PcR-K3TjEWTyylFA.jpg?itok=JEVXaQ36"}
{"name":"Le Parc Les Crayères","stars":2,"street":"64 Boulevard Henry Vasnier","postalCode":"51100","city":"Reims","picture":"https://restaurant.michelin.fr/sites/mtpb2c_fr/files/styles/poi_detail_landscape/public/PHOTO7.jpg?itok=-5qyijmF"}
{"name":"L'Arcane","stars":1,"street":"39 Rue Lamarck","postalCode":"75018","city":"Paris","picture":"https://restaurant.michelin.fr/sites/mtpb2c_fr/files/styles/poi_detail_landscape/public/kSQs6rKAza8q6-4g.jpg?itok=-DHKrhOg"}
{"name":"L'Amaryllis","stars":1,"street":"chemin de Martorey","postalCode":"71100","city":"Saint-Rémy","picture":"https://restaurant.michelin.fr/sites/mtpb2c_fr/files/styles/poi_detail_landscape/public/XXT4CYF0fuVuUJhw.jpg?itok=v7xS6QLp"}
{"name":"Maison Decoret","stars":1,"street":"15 rue du Parc","postalCode":"03200","city":"Vichy","picture":"https://restaurant.michelin.fr/sites/mtpb2c_fr/files/styles/poi_detail_landscape/public/Maison-decoret.jpg?itok=8Uv6AahU"}
{"name":"Les Bas-Rupts","stars":1,"street":"181 rte de la Bresse","postalCode":"88400","city":"Bas-Rupts","picture":"https://restaurant.michelin.fr/sites/mtpb2c_fr/files/styles/poi_detail_landscape/public/3375_2_0.jpg?itok=9XmVFWuv"}
{"name":"Auberge de l'Abbaye","stars":1,"street":"47 place des anciens Combattants","postalCode":"01500","city":"Ambronay","picture":"https://restaurant.michelin.fr/sites/mtpb2c_fr/files/styles/poi_detail_landscape/public/IMG_0943.jpg?itok=ZcJjaBDC"}
{"name":"Georges Blanc","stars":3,"street":"pl. du Marché","postalCode":"01540","city":"Vonnas","picture":"https://restaurant.michelin.fr/sites/mtpb2c_fr/files/styles/poi_detail_landscape/public/Georges%20Blanc%201.jpg?itok=42k7XNbH"}
{"name":"1912","stars":1,"street":"bd de la Cahotte","postalCode":"14360","city":"Trouville-sur-Mer","picture":"https://restaurant.michelin.fr/sites/mtpb2c_fr/files/styles/poi_detail_landscape/public/PxRoeeguDogE01gA.jpg?itok=folsjcFF"}
{"name":"Lucas Carton","stars":1,"street":"9 pl. de la Madeleine","postalCode":"75008","city":"Paris 08","picture":"https://restaurant.michelin.fr/sites/mtpb2c_fr/files/styles/poi_detail_landscape/public/lucas-carton.jpg?itok=bjTbXPy4"}
{"name":"Le Haut-Allier","stars":1,"street":"LE PONT D ALLEYRAS","postalCode":"43580","city":"Alleyras","picture":"https://restaurant.michelin.fr/sites/mtpb2c_fr/files/styles/poi_detail_landscape/public/9872_1_0.jpg?itok=C9m-vCB1"}
{"name":"Lasserre","stars":1,"street":"17 Avenue F. -D. -Roosevelt","postalCode":"75008","city":"Paris 08","picture":"https://restaurant.michelin.fr/sites/mtpb2c_fr/files/styles/poi_detail_landscape/public/VEQUylIVHsofv7og.jpg?itok=v17Dntuz"}
{"name":"Maison Kieny","stars":1,"street":"7 Rue du Général de Gaulle","postalCode":"68400","city":"Riedisheim","picture":"https://restaurant.michelin.fr/sites/mtpb2c_fr/files/styles/poi_detail_landscape/public/LxTY2FbSfKqbkTpg.jpg?itok=VPzg11th"}
{"name":"Auberge de la Tour","stars":1,"street":"Place de la Fontaine","postalCode":"15220","city":"MARCOLES","picture":"https://restaurant.michelin.fr/sites/mtpb2c_fr/files/styles/poi_detail_landscape/public/L%27Auberge%20de%20la%20Tour.jpg?itok=qNfSfG2X"}
{"name":"Michel Chabran - La Grande Table","stars":1,"street":"29 Avenue du Quarante-Cinquième Parallèle","postalCode":"26600","city":"Pont-de-l'Isère","picture":"https://restaurant.michelin.fr/sites/mtpb2c_fr/files/styles/poi_detail_landscape/public/Pommes_de_terre_rattes_%C3%A9crass%C3%A9es_aux_truffes%5B1%5D.jpg?itok=0F_rigG1"}
{"name":"Hostellerie Jérôme","stars":2,"street":"20 r. Comte de Cessole","postalCode":"06320","city":"La Turbie","picture":"https://restaurant.michelin.fr/sites/mtpb2c_fr/files/styles/poi_detail_landscape/public/9169_1_0.jpg?itok=iPAOfGCu"}
{"name":"Auberge du Cheval Blanc","stars":2,"street":"4 Route de Wissembourg","postalCode":"67510","city":"Lembach","picture":"https://restaurant.michelin.fr/sites/mtpb2c_fr/files/styles/poi_detail_landscape/public/Auberge%20du%20Cheval%20Blanc_0.jpg?itok=4UJGviNk"}
{"name":"La Grand'Vigne","stars":2,"street":"chemin de Smith-Haut-Lafitte","postalCode":"33650","city":"Martillac","picture":"https://restaurant.michelin.fr/sites/mtpb2c_fr/files/styles/poi_detail_landscape/public/gUTTuw1L-k92QfEw.jpg?itok=uD0z15hC"}
{"name":"Pic","stars":3,"street":"285 avenue Victor Hugo","postalCode":"26000","city":"Valence","picture":"https://restaurant.michelin.fr/sites/mtpb2c_fr/files/styles/poi_detail_landscape/public/Y6CmiFGzQc-77aZ9VHQvuQ.jpg?itok=5Ffsszvs"}
{"name":"Apicius","stars":1,"street":"20 r. d'Artois","postalCode":"75008","city":"PARIS","picture":"https://restaurant.michelin.fr/sites/mtpb2c_fr/files/styles/poi_detail_landscape/public/Apicius5.jpg?itok=Od6HKrWq"}
{"name":"Domaine des Séquoias","stars":1,"street":"54 Vie-de-Boussieu","postalCode":"38300","city":"Ruy","picture":"https://restaurant.michelin.fr/sites/mtpb2c_fr/files/styles/poi_detail_landscape/public/Domaine-sequoia.jpg?itok=mFGDvxkf"}
{"name":"L'Auberge des Glazicks","stars":2,"street":"7 rue de la Plage","postalCode":"29550","city":"PLOMODIERN","picture":"https://restaurant.michelin.fr/sites/mtpb2c_fr/files/styles/poi_detail_landscape/public/Glazicks.jpg?itok=MCpievWc"}
{"name":"L'Ambroisie","stars":3,"street":"9 Place des Vosges","postalCode":"75004","city":"Paris","picture":"https://restaurant.michelin.fr/sites/mtpb2c_fr/files/styles/poi_detail_landscape/public/_JAG2470C.jpg?itok=LTPaqMCH"}
{"name":"Auberge de l'Ill","stars":3,"street":"2 rue de Collonges-au-Mont d'Or","postalCode":"68970","city":"Illhaeusern","picture":"https://restaurant.michelin.fr/sites/mtpb2c_fr/files/styles/poi_detail_landscape/public/Auberge%20de%20l%27Ill%202017%20%285%29.jpg?itok=voke3kUS"}
{"name":"L'Odas","stars":1,"street":"Passage Maurice Lenfant","postalCode":"76000","city":"Rouen","picture":"https://restaurant.michelin.fr/sites/mtpb2c_fr/files/styles/poi_detail_landscape/public/CsQr67lI38UXardg.jpg?itok=rskXhEDX"}
{"name":"Aux Pesked","stars":1,"street":"59 Rue du Légué","postalCode":"22000","city":"Saint-Brieuc","picture":"https://restaurant.michelin.fr/sites/mtpb2c_fr/files/styles/poi_detail_landscape/public/Au%20pesked.jpg?itok=wR9kGTye"}
{"name":"Le Meurice Alain Ducasse","stars":2,"street":"228 Rue de Rivoli","postalCode":"75001","city":"Paris","picture":"https://restaurant.michelin.fr/sites/mtpb2c_fr/files/styles/poi_detail_landscape/public/le%20meurice.jpg?itok=MjM2Fywb"}
{"name":"Helen","stars":1,"street":"3 r.Berryer","postalCode":"75008","city":"Paris","picture":"https://restaurant.michelin.fr/sites/mtpb2c_fr/files/styles/poi_detail_landscape/public/a3SimEAAJf7AjQIw.jpg?itok=yPZHWrUz"}
{"name":"La Table des Merville","stars":1,"street":"3 place Richard","postalCode":"31320","city":"Castanet-Tolosan","picture":"https://restaurant.michelin.fr/sites/mtpb2c_fr/files/styles/poi_detail_landscape/public/2-min-min.jpg?itok=mxyfMWTv"}
{"name":"En Marge","stars":1,"street":"1204 route de la Croix-Falgarde","postalCode":"31320","city":"AUREVILLE","picture":"https://restaurant.michelin.fr/sites/mtpb2c_fr/files/styles/poi_detail_landscape/public/7eScK-DT5vCcV2XA.jpg?itok=pp7gPQfS"}
{"name":"La Bastide de Moustiers","stars":1,"street":"Parc naturel régional du Verdon, Chemin de Quinson","postalCode":"04360","city":"Moustiers-Sainte-Marie","picture":"https://restaurant.michelin.fr/sites/mtpb2c_fr/files/styles/poi_detail_landscape/public/Bastide%20de%20Moustiers%20-%20ext%2B-%C2%ABrieur%20chemin%20-%20%28c%29PierreMonetta.jpg?itok=8GW_bPZW"}
{"name":"Le Gabriel","stars":2,"street":"42 Avenue Gabriel","postalCode":"75008","city":"Paris","picture":"https://restaurant.michelin.fr/sites/mtpb2c_fr/files/styles/poi_detail_landscape/public/Salle_1.jpg?itok=xNQshrm4"}
{"name":"Les Fresques","stars":1,"street":"D18","postalCode":"24240","city":"Monestier","picture":"https://restaurant.michelin.fr/sites/mtpb2c_fr/files/styles/poi_detail_landscape/public/DzTpq7nUs5HKqBUg.jpg?itok=bmH7wf7n"}
{"name":"Jérôme Brochot","stars":1,"street":"Place Beaubernard","postalCode":"71300","city":"Montceau-les-Mines","picture":"https://restaurant.michelin.fr/sites/mtpb2c_fr/files/styles/poi_detail_landscape/public/3bQJ-nJDLIHY17DA.jpg?itok=QHy-n9U1"}
{"name":"Domaine d'Auriac","stars":1,"street":"Route de Saint-Hilaire","postalCode":"11000","city":"Carcassonne","picture":"https://restaurant.michelin.fr/sites/mtpb2c_fr/files/styles/poi_detail_landscape/public/-OkJXZEsQuCHiPyQbYA89A.jpg?itok=nlQXXWyO"}
{"name":"Au 14 Février","stars":1,"street":"2 r. du Portail","postalCode":"36100","city":"Saint-Valentin","picture":"https://restaurant.michelin.fr/sites/mtpb2c_fr/files/styles/poi_detail_landscape/public/b1Q22zIiGQK4a2zg.jpg?itok=-lPENy_M"}
{"name":"Le Kaïku","stars":1,"street":"17 r. de la République","postalCode":"64500","city":"Saint-Jean-de-Luz","picture":"https://restaurant.michelin.fr/sites/mtpb2c_fr/files/styles/poi_detail_landscape/public/SpQ1-iIdHI4cUL4Q.jpg?itok=cKU2u75D"}
{"name":"Le Chabichou","stars":2,"street":"90 Route des Chenus","postalCode":"73120","city":"Courchevel 1850","picture":"https://restaurant.michelin.fr/sites/mtpb2c_fr/files/styles/poi_detail_landscape/public/PB-La_Truite_01.jpg?itok=5Ww9F269"}
{"name":"La Table de la Bergerie","stars":1,"street":"La Bergerie","postalCode":"49380","city":"Champ-sur-Layon","picture":"https://restaurant.michelin.fr/sites/mtpb2c_fr/files/styles/poi_detail_landscape/public/QzTzueIG7cYdTczA.jpg?itok=sLtOPxVO"}
{"name":"Py-r","stars":1,"street":"19 descente de la Halle-aux-Poissons","postalCode":"31000","city":"Toulouse","picture":"https://restaurant.michelin.fr/sites/mtpb2c_fr/files/styles/poi_detail_landscape/public/ybQ16GP9RTnO59ug.jpg?itok=RXThhMHz"}
{"name":"Guy Lassausaie","stars":2,"street":"r. de Belle-Sise","postalCode":"69380","city":"Chasselay","picture":"https://restaurant.michelin.fr/sites/mtpb2c_fr/files/styles/poi_detail_landscape/public/2033_1_1.jpg?itok=eFGC9NfC"}
{"name":"Les Ducs de Lorraine","stars":1,"street":"5 av. Provence","postalCode":"88000","city":"Épinal","picture":"https://restaurant.michelin.fr/sites/mtpb2c_fr/files/styles/poi_detail_landscape/public/PpTySvvchpja3DDA.jpg?itok=vnMYSbKr"}
{"name":"Le Mascaret","stars":1,"street":"1 r. de Bas","postalCode":"50560","city":"Blainville-sur-Mer","picture":"https://restaurant.michelin.fr/sites/mtpb2c_fr/files/styles/poi_detail_landscape/public/mascaret.jpg?itok=xSX_weCk"}
{"name":"Le Quincangrogne","stars":1,"street":"7 Rue de l'Abreuvoir","postalCode":"77400","city":"Dampmart","picture":"https://restaurant.michelin.fr/sites/mtpb2c_fr/files/styles/poi_detail_landscape/public/tRRH2S1IabJhdz9Q.jpg?itok=7ZkD2ShI"}
{"name":"Auberge du Bon Laboureur","stars":1,"street":"6 r. Dr Bretonneau","postalCode":"37150","city":"Chenonceaux","picture":"https://restaurant.michelin.fr/sites/mtpb2c_fr/files/styles/poi_detail_landscape/public/PWbP-WcTQKOULjq4u8YrXg.jpg?itok=5vxP4sxe"}
{"name":"Les Climats","stars":1,"street":"41 rue de Lille","postalCode":"75007","city":"Paris 07","picture":"https://restaurant.michelin.fr/sites/mtpb2c_fr/files/styles/poi_detail_landscape/public/1_327.jpg?itok=X7pNxkx3"}
{"name":"Guy Savoy","stars":3,"street":"Monnaie de Paris11 Quai de Conti","postalCode":"75006","city":"Paris","picture":"https://restaurant.michelin.fr/sites/mtpb2c_fr/files/styles/poi_detail_landscape/public/6477_5_0_1.jpg?itok=msNtez7n"}
{"name":"Château de Mirambeau","stars":1,"street":"1 Avenue des Comtes Duchatel","postalCode":"17150","city":"Mirambeau","picture":"https://restaurant.michelin.fr/sites/mtpb2c_fr/files/styles/poi_detail_landscape/public/mirambeau-restaurant-003.jpg?itok=_utHmbu2"}
{"name":"Les Trois Dômes","stars":1,"street":"20 quai Gailleton","postalCode":"69002","city":"Lyon"}
{"name":"Les Berceaux","stars":1,"street":"13 rue des Berceaux","postalCode":"51200","city":"Épernay","picture":"https://restaurant.michelin.fr/sites/mtpb2c_fr/files/styles/poi_detail_landscape/public/berceaux2016-22.jpg?itok=8lw9rfwq"}
{"name":"Frédéric Simonin","stars":1,"street":"25 rue Bayen","postalCode":"75017","city":"Paris","picture":"https://restaurant.michelin.fr/sites/mtpb2c_fr/files/styles/poi_detail_landscape/public/27Rs6LMIPamOqLBg_1.jpg?itok=n4NP9Vwx"}
{"name":"64° Le Restaurant","stars":2,"street":"9-13 Rue du Général de Gaulle","postalCode":"68240","city":"Kaysersberg","picture":"https://restaurant.michelin.fr/sites/mtpb2c_fr/files/styles/poi_detail_landscape/public/3hSM-H9d8XnLJIBw.jpg?itok=QRK4Y_3L"}
{"name":"L'Écrin","stars":1,"street":"10 place de la Concorde","postalCode":"75008","city":"Paris","picture":"https://restaurant.michelin.fr/sites/mtpb2c_fr/files/styles/poi_detail_landscape/public/L%27Ecrin-Paris.jpg?itok=XCuQfxre"}
{"name":"Le Pré Catelan","stars":3,"street":"Route de Suresnes","postalCode":"75016","city":"Paris","picture":"https://restaurant.michelin.fr/sites/mtpb2c_fr/files/styles/poi_detail_landscape/public/0hRsy7Bia6daVRlQ.jpg?itok=OSs6KkmA"}
{"name":"Maison Rostang","stars":2,"street":"20 rue Rennequin","postalCode":"75017","city":"Paris","picture":"https://restaurant.michelin.fr/sites/mtpb2c_fr/files/styles/poi_detail_landscape/public/Cuisses%20de%20grenouille%20en%20habit%20vert%20ail%20doux%20et%20artichauts%20r%C3%B4tis%20coulis%20de%20cresson%20acidul%C3%A93-MaisonRostang-JulieLimont-HD.jpg?itok=9et9Iu76"}
{"name":"Le Saint-Estève","stars":1,"street":"2250 route cézanne D17","postalCode":"13100","city":"Le Tholonet","picture":"https://restaurant.michelin.fr/sites/mtpb2c_fr/files/styles/poi_detail_landscape/public/_ALP7446__web_83.jpg?itok=WpLeJ_17"}
{"name":"Le Domaine du Colombier","stars":1,"street":"270 Chemin de Malombre","postalCode":"26780","city":"Malataverne","picture":"https://restaurant.michelin.fr/sites/mtpb2c_fr/files/styles/poi_detail_landscape/public/Domaine%20du%20Colombier.jpg?itok=206ll8FB"}
{"name":"Les Clefs d'Argent","stars":1,"street":"333 Avenue des Martyrs de la Résistance","postalCode":"40000","city":"Mont-de-Marsan","picture":"https://restaurant.michelin.fr/sites/mtpb2c_fr/files/styles/poi_detail_landscape/public/121265_3_0.jpg?itok=PZxkYmKE"}
{"name":"Christophe Bacquié","stars":3,"street":"Hotel du Castellet Route des Hauts du Camp","postalCode":"83330","city":"Le Castellet","picture":"https://restaurant.michelin.fr/sites/mtpb2c_fr/files/styles/poi_detail_landscape/public/Christophe-Bacqui%C3%A9_Le-Castellet_3.jpg?itok=Rqc5WV_g"}
{"name":"Les Rosiers","stars":1,"street":"32 av. Beau Soleil","postalCode":"64200","city":"Biarritz","picture":"https://restaurant.michelin.fr/sites/mtpb2c_fr/files/styles/poi_detail_landscape/public/DSC05747.JPG?itok=KqkilzPV"}
{"name":"La Passagère","stars":1,"street":"33 boulevard E. -Baudoin","postalCode":"06160","city":"Juan-les-Pins","picture":"https://restaurant.michelin.fr/sites/mtpb2c_fr/files/styles/poi_detail_landscape/public/10%202017%2003%20PLATS%20BR.JPG?itok=YcFpCvte"}
{"name":"JY'S","stars":2,"street":"17 r. de la Poissonnerie","postalCode":"68000","city":"Colmar","picture":"https://restaurant.michelin.fr/sites/mtpb2c_fr/files/styles/poi_detail_landscape/public/neSjqRQNH368J02w.jpg?itok=5UpVEC2n"}
{"name":"Shang Palace","stars":1,"street":"10 Avenue d'Iéna","postalCode":"75016","city":"Paris 16","picture":"https://restaurant.michelin.fr/sites/mtpb2c_fr/files/styles/poi_detail_landscape/public/JtTkGCY6PRHVwa2Q.jpg?itok=IpR9f7kx"}
{"name":"L'Amphitryon","stars":1,"street":"127 r. du Col. -Müller","postalCode":"56100","city":"Lorient","picture":"https://restaurant.michelin.fr/sites/mtpb2c_fr/files/styles/poi_detail_landscape/public/YpRxeHs3lTI_nrfg.jpg?itok=rk52k9jG"}
{"name":"Manoir de la Boulaie","stars":2,"street":"33 rue Chapelle St-Martin","postalCode":"44115","city":"HAUTE-GOULAINE","picture":"https://restaurant.michelin.fr/sites/mtpb2c_fr/files/styles/poi_detail_landscape/public/hnSASEwSQa1j42gA.jpg?itok=MsoEvPAR"}
{"name":"Grand Hôtel du Lion d'Or","stars":1,"street":"69 r. Clemenceau","postalCode":"41200","city":"Romorantin-Lanthenay","picture":"https://restaurant.michelin.fr/sites/mtpb2c_fr/files/styles/poi_detail_landscape/public/jmSnO-2H_D856cRQ.jpg?itok=u3JCr889"}
{"name":"Loiseau des Ducs","stars":1,"street":"3 Rue Vauban","postalCode":"21000","city":"Dijon","picture":"https://restaurant.michelin.fr/sites/mtpb2c_fr/files/styles/poi_detail_landscape/public/Saint%20Jacques%20Patidou%20Butternut%20et%20Jambon%20Pata%20N%C3%A9gra.jpg?itok=TNK7ypra"}
{"name":"Les Terraillers","stars":1,"street":"11 Route Chemin-Neuf","postalCode":"06410","city":"Biot","picture":"https://restaurant.michelin.fr/sites/mtpb2c_fr/files/styles/poi_detail_landscape/public/1134_1_0.jpg?itok=P3h7oUr0"}
{"name":"L'Atelier de Gaztelur","stars":1,"street":"Chemin de Gastelhur","postalCode":"64200","city":"Arcangues"}
{"name":"Flaveur","stars":2,"street":"25 Rue Gubernatis","postalCode":"06000","city":"Nice","picture":"https://restaurant.michelin.fr/sites/mtpb2c_fr/files/styles/poi_detail_landscape/public/_DSC1840.jpg?itok=LQBnYNkv"}
{"name":"Auberge à la Bonne Idée","stars":1,"street":"3 rue des Meuniers","postalCode":"60350","city":"SAINT-JEAN-AUX-BOIS","picture":"https://restaurant.michelin.fr/sites/mtpb2c_fr/files/styles/poi_detail_landscape/public/ohTBmAPjZlcd6arw.jpg?itok=ga3Yc2zd"}
{"name":"Ed.Em","stars":1,"street":"4 imp. Chenevottes","postalCode":"21190","city":"Chassagne-Montrachet","picture":"https://restaurant.michelin.fr/sites/mtpb2c_fr/files/styles/poi_detail_landscape/public/Ed%20Em%202016-42.jpg?itok=Aan8sjJM"}
{"name":"Cobéa","stars":1,"street":"11 r. Raymond Losserand","postalCode":"75014","city":"Paris 14","picture":"https://restaurant.michelin.fr/sites/mtpb2c_fr/files/styles/poi_detail_landscape/public/Cobea.jpg?itok=dkYqUxdE"}
{"name":"La Table d'Uzès","stars":1,"street":"18 rue du Docteur Blanchard","postalCode":"30700","city":"Uzès","picture":"https://restaurant.michelin.fr/sites/mtpb2c_fr/files/styles/poi_detail_landscape/public/LURje4UeIH35eq3g.jpg?itok=hsvVkvnO"}
{"name":"Le Cinq","stars":3,"street":"31 av. George V","postalCode":"75008","city":"Paris 08","picture":"https://restaurant.michelin.fr/sites/mtpb2c_fr/files/styles/poi_detail_landscape/public/le-cinq.jpg?itok=RXaozMc5"}
{"name":"AM par Alexandre Mazzia","stars":1,"street":"9 rue François Rocca","postalCode":"13008","city":"Marseille","picture":"https://restaurant.michelin.fr/sites/mtpb2c_fr/files/styles/poi_detail_landscape/public/fcRBy5sonqzH6Xaw.jpg?itok=iSOL25WY"}
{"name":"1131","stars":1,"street":"D 33","postalCode":"21360","city":"La Bussière-sur-Ouche","picture":"https://restaurant.michelin.fr/sites/mtpb2c_fr/files/styles/poi_detail_landscape/public/1609_AG_Bussiere93_CMJNF._preview.jpeg?itok=SCeo0vII"}
{"name":"Les Terrasses de Lyon","stars":1,"street":"25, montée Saint BArthelémy","postalCode":"69005","city":"Lyon 05","picture":"https://restaurant.michelin.fr/sites/mtpb2c_fr/files/styles/poi_detail_landscape/public/ZISXSqiTDywm3t_w.jpg?itok=5QN2We1D"}
{"name":"Jean-Luc Tartarin","stars":2,"street":"Square Saint-Roch","postalCode":"76600","city":"Le Havre","picture":"https://restaurant.michelin.fr/sites/mtpb2c_fr/files/styles/poi_detail_landscape/public/MnTWmUsPKxur8yGA.jpg?itok=UtxKcFRr"}
{"name":"Le Jasmin","stars":1,"street":"Lieu-dit Lalande","postalCode":"47140","city":"Saint-Sylvestre-sur-Lot","picture":"https://restaurant.michelin.fr/sites/mtpb2c_fr/files/styles/poi_detail_landscape/public/KtQDST7Wr2fExm1g.jpg?itok=_RGYUEhW"}
{"name":"Le Sénéchal","stars":1,"street":"Sauveterre de Rouergue","postalCode":"12800","city":"Sauveterre-de-Rouergue","picture":"https://restaurant.michelin.fr/sites/mtpb2c_fr/files/styles/poi_detail_landscape/public/uR7vb5jvRAmS8FZYzFoiNQ.jpg?itok=xk5Do_so"}
{"name":"Dominique Bucaille","stars":1,"street":"715 av. des Savels","postalCode":"04100","city":"Manosque","picture":"https://restaurant.michelin.fr/sites/mtpb2c_fr/files/styles/poi_detail_landscape/public/xESyuDSbPxOzJNcw.jpg?itok=7TdW1BRI"}
{"name":"L'Épuisette","stars":1,"street":"158 Vallon-des-Auffes","postalCode":"13007","city":"Marseille","picture":"https://restaurant.michelin.fr/sites/mtpb2c_fr/files/styles/poi_detail_landscape/public/3ESQmgZiC7BYmA8A.jpg?itok=Qozr5Htj"}
{"name":"La Bastide St-Antoine","stars":1,"street":"48 av. Henri-Dunant","postalCode":"06130","city":"Grasse","picture":"https://restaurant.michelin.fr/sites/mtpb2c_fr/files/styles/poi_detail_landscape/public/990373_1_333mp-min.jpg?itok=6yLH_kS3"}
{"name":"Les Explorateurs","stars":1,"street":"place du Slalom","postalCode":"73440","city":"VAL THORENS","picture":"https://restaurant.michelin.fr/sites/mtpb2c_fr/files/styles/poi_detail_landscape/public/_dRs2QSQDBcZyDNw.jpg?itok=XH95sZu1"}
{"name":"Le Strasbourg","stars":1,"street":"24 r. du Col. -Teyssier","postalCode":"57230","city":"Bitche","picture":"https://restaurant.michelin.fr/sites/mtpb2c_fr/files/styles/poi_detail_landscape/public/_LThSzXsVwVd4s7Q.jpg?itok=w-CdeWoP"}
{"name":"La Nouvelle Auberge","stars":1,"street":"9 route Nationale","postalCode":"68230","city":"Wihr-au-Val","picture":"https://restaurant.michelin.fr/sites/mtpb2c_fr/files/styles/poi_detail_landscape/public/q_Qyyelmv00gVNKw.jpg?itok=KY7BywBr"}
{"name":"Flocons de Sel","stars":3,"street":"1775 rte du Leutaz","postalCode":"74120","city":"Megève","picture":"https://restaurant.michelin.fr/sites/mtpb2c_fr/files/styles/poi_detail_landscape/public/4717_3_0.jpg?itok=h2jnH4vc"}
{"name":"Auberge Frankenbourg","stars":1,"street":"13 r. Gén. de Gaulle","postalCode":"67730","city":"La Vancelle","picture":"https://restaurant.michelin.fr/sites/mtpb2c_fr/files/styles/poi_detail_landscape/public/M8QvuTcjaUOMHiMg.jpg?itok=1hCx6yRm"}
{"name":"Les Cèdres","stars":2,"street":"25 Rue Henri MACHON","postalCode":"26600","city":"Granges-les-Beaumont","picture":"https://restaurant.michelin.fr/sites/mtpb2c_fr/files/styles/poi_detail_landscape/public/rzQ3mhbZBF8UHHkg.jpg?itok=n-lWJmFn"}
{"name":"Château d'Adoménil","stars":1,"street":"","postalCode":"54300","city":"Lunéville","picture":"https://restaurant.michelin.fr/sites/mtpb2c_fr/files/styles/poi_detail_landscape/public/omRGacilB35I9U4A.jpg?itok=u4ggPZG0"}
{"name":"René et Maxime Meilleur","stars":3,"street":"Saint Marcel","postalCode":"73440","city":"Saint-Martin-de-Belleville","picture":"https://restaurant.michelin.fr/sites/mtpb2c_fr/files/styles/poi_detail_landscape/public/photo%20marc%20berenguer%2025-2.jpg?itok=n3wx2lZH"}
{"name":"Hostellerie de Plaisance","stars":2,"street":"5 place du Clocher","postalCode":"33330","city":"Saint-Emilion","picture":"https://restaurant.michelin.fr/sites/mtpb2c_fr/files/styles/poi_detail_landscape/public/1-min-min.jpg?itok=tWz3iZUP"}
{"name":"Origine","stars":1,"street":"26 Rampe Cauchoise","postalCode":"76000","city":"Rouen","picture":"https://restaurant.michelin.fr/sites/mtpb2c_fr/files/styles/poi_detail_landscape/public/UYR-mjFVvhjEJ6rA.jpg?itok=xWYFd7DG"}
{"name":"Alexandre","stars":2,"street":"2 rue Xavier Tronc","postalCode":"30128","city":"Garons","picture":"https://restaurant.michelin.fr/sites/mtpb2c_fr/files/styles/poi_detail_landscape/public/S9SwePbm8QkmknvQ.jpg?itok=Rka3dA6G"}
{"name":"La Scène Thélème","stars":1,"street":"18 Rue Troyon","postalCode":"75017","city":"PARIS","picture":"https://restaurant.michelin.fr/sites/mtpb2c_fr/files/styles/poi_detail_landscape/public/Sc%C3%A8ne%20Th%C3%A9l%C3%A8me%202.jpg?itok=anQ7iLE-"}
{"name":"Régis et Jacques Marcon","stars":3,"street":"Larsiallas","postalCode":"43290","city":"SAINT-BONNET-LE-FROID","picture":"https://restaurant.michelin.fr/sites/mtpb2c_fr/files/styles/poi_detail_landscape/public/ncRSad1wxiTiq-uA.jpg?itok=uXMKRopW"}
{"name":"La Palme d'Or","stars":2,"street":"73 Boulevard de la Croisette","postalCode":"06400","city":"Cannes","picture":"https://restaurant.michelin.fr/sites/mtpb2c_fr/files/styles/poi_detail_landscape/public/S9QNyDDYqAAKXbHg.jpg?itok=EBqQKVgW"}
{"name":"Le P'tit Polyte","stars":1,"street":"2 Rue de la Chapelle","postalCode":"38860","city":"Les Deux Alpes","picture":"https://restaurant.michelin.fr/sites/mtpb2c_fr/files/styles/poi_detail_landscape/public/5JQJGzeY3-AGSJWQ.jpg?itok=umOXbPPJ"}
{"name":"Auberge de la Diligence","stars":1,"street":"4 r. de la Libération","postalCode":"49440","city":"Loiré","picture":"https://restaurant.michelin.fr/sites/mtpb2c_fr/files/styles/poi_detail_landscape/public/z0TtePYwR-3fW1HQ.jpg?itok=q9UR-1Le"}
{"name":"Ô Saveurs","stars":1,"street":"8 place Ormeaux au village","postalCode":"31180","city":"ROUFFIAC-TOLOSAN","picture":"https://restaurant.michelin.fr/sites/mtpb2c_fr/files/styles/poi_detail_landscape/public/0KRCyKS4VEYRgARw.jpg?itok=qNw-dlwk"}
{"name":"Neige d'Été","stars":1,"street":"12 Rue de l'Amiral Roussin","postalCode":"75015","city":"Paris 15","picture":"https://restaurant.michelin.fr/sites/mtpb2c_fr/files/styles/poi_detail_landscape/public/neige-d%27ete-paris.jpg?itok=QyDhP7vt"}
{"name":"Mavrommatis","stars":1,"street":"42 rue Daubenton","postalCode":"75005","city":"Paris 05","picture":"https://restaurant.michelin.fr/sites/mtpb2c_fr/files/styles/poi_detail_landscape/public/iagneau-et-dolmades-copie-1024x683.jpg?itok=gnHbr00W"}
{"name":"Antoine","stars":1,"street":"10 av. de New-York","postalCode":"75116","city":"Paris 16","picture":"https://restaurant.michelin.fr/sites/mtpb2c_fr/files/styles/poi_detail_landscape/public/3S5A2716.jpg?itok=p7sJt2sv"}
{"name":"Le Candille","stars":1,"street":"bd C. Rebuffel","postalCode":"06250","city":"Mougins","picture":"https://restaurant.michelin.fr/sites/mtpb2c_fr/files/styles/poi_detail_landscape/public/J.J%20Giordan%20www.photos-hdr.com%20JJ1D0259_60_61_62_63Balanced_preview.jpeg?itok=luMM4idt"}
{"name":"Hélène Darroze","stars":1,"street":"4 rue d'Assas","postalCode":"75006","city":"Paris 06","picture":"https://restaurant.michelin.fr/sites/mtpb2c_fr/files/styles/poi_detail_landscape/public/RMTxK3VNuHPUuPhg.jpg?itok=0dpEgxUI"}
{"name":"Le Roc Alto","stars":1,"street":"Quartier La Ville","postalCode":"05350","city":"SAINT-VERAN","picture":"https://restaurant.michelin.fr/sites/mtpb2c_fr/files/styles/poi_detail_landscape/public/QlSrmza7KljvSyCA.jpg?itok=OhI8F-hJ"}
{"name":"Le Bois sans Feuilles","stars":3,"street":"728 Route de Villerest","postalCode":"42155","city":"Ouches","picture":"https://restaurant.michelin.fr/sites/mtpb2c_fr/files/styles/poi_detail_landscape/public/Troigros%20Ouches2611.jpg?itok=ClDSkUhX"}
{"name":"Alcyone","stars":1,"street":"1 Place Daviel","postalCode":"13002","city":"MARSEILLE","picture":"https://restaurant.michelin.fr/sites/mtpb2c_fr/files/styles/poi_detail_landscape/public/Alcyone.jpg?itok=rW19wGjy"}
{"name":"Agapé","stars":1,"street":"51 Rue Jouffroy-d'Abbans","postalCode":"75017","city":"Paris 17","picture":"https://restaurant.michelin.fr/sites/mtpb2c_fr/files/styles/poi_detail_landscape/public/iISK-1u8sxhxOIPA.jpg?itok=0p1IVlLX"}
{"name":"Auberge de l'Île Barbe","stars":1,"street":"1 Place Notre-Dame","postalCode":"69009","city":"Lyon 09","picture":"https://restaurant.michelin.fr/sites/mtpb2c_fr/files/styles/poi_detail_landscape/public/Untitled-1_4.jpg?itok=biuzGCBe"}
{"name":"La Mare aux Oiseaux","stars":1,"street":"223 RUE DU CHEF DE L'ILE Fedrun","postalCode":"44720","city":"Saint-Joachim","picture":"https://restaurant.michelin.fr/sites/mtpb2c_fr/files/styles/poi_detail_landscape/public/7974_1_0.jpg?itok=mOB7NuAI"}
{"name":"Pur' - Jean-François Rouquette","stars":1,"street":"5 r. de la Paix","postalCode":"75002","city":"Paris 02","picture":"https://restaurant.michelin.fr/sites/mtpb2c_fr/files/styles/poi_detail_landscape/public/_OPE042-min.jpg?itok=m3U0WdtS"}
{"name":"Aigue Marine","stars":1,"street":"5 r. M. -Berthelot","postalCode":"22220","city":"Tréguier","picture":"https://restaurant.michelin.fr/sites/mtpb2c_fr/files/styles/poi_detail_landscape/public/aigue_marine%20betterave%20mure%20m%C3%A9lisse.jpg?itok=NcqM4xdb"}
{"name":"La Table de l'Espadon","stars":2,"street":"15 Place Vendôme","postalCode":"75001","city":"Paris","picture":"https://restaurant.michelin.fr/sites/mtpb2c_fr/files/styles/poi_detail_landscape/public/9NSniYMb1ptNj8bA.jpg?itok=87DpIoJY"}
{"name":"La Table de Franck Putelat","stars":2,"street":"80 chemin des Anglais","postalCode":"11000","city":"Carcassonne","picture":"https://restaurant.michelin.fr/sites/mtpb2c_fr/files/styles/poi_detail_landscape/public/DZRpyNUJsA1YpqQA.jpg?itok=uqJ5LaLA"}
{"name":"Le Carré d'Alethius","stars":1,"street":"4 r. Paul-Bertois","postalCode":"07800","city":"Charmes-sur-Rhône","picture":"https://restaurant.michelin.fr/sites/mtpb2c_fr/files/styles/poi_detail_landscape/public/CnR2CiwpZSOPPKaA.jpg?itok=PbiFC0k0"}
{"name":"Restaurant du Palais Royal","stars":1,"street":"110 Galerie de Valois - Jardin du Palais Royal","postalCode":"75001","city":"Paris 01","picture":"https://restaurant.michelin.fr/sites/mtpb2c_fr/files/styles/poi_detail_landscape/public/Restaurant%20Palais%20Royal%20Terrasse%202016%203%20-%20Yann%20Audic.jpg?itok=fIRuiKeS"}
{"name":"Paul Bocuse","stars":3,"street":"40 Quai de la Plage","postalCode":"69660","city":"Collonges-au-Mont-d'Or","picture":"https://restaurant.michelin.fr/sites/mtpb2c_fr/files/styles/poi_detail_landscape/public/bocuse2_0.jpg?itok=FUxHwfk7"}
{"name":"Le 39V","stars":1,"street":"39 Avenue George V","postalCode":"75008","city":"Paris 08","picture":"https://restaurant.michelin.fr/sites/mtpb2c_fr/files/styles/poi_detail_landscape/public/Le-39v_Paris_1.jpg?itok=Gj_PVDAU"}
{"name":"Auberge St-Laurent","stars":1,"street":"1 rue Fontaine","postalCode":"68510","city":"Sierentz","picture":"https://restaurant.michelin.fr/sites/mtpb2c_fr/files/styles/poi_detail_landscape/public/8624_1_0.jpg?itok=EXHRTplD"}
{"name":"Les Pêcheurs","stars":1,"street":"10 boulevard du Maréchal-Juin","postalCode":"06600","city":"Antibes","picture":"https://restaurant.michelin.fr/sites/mtpb2c_fr/files/styles/poi_detail_landscape/public/ZrTrKFWWFI4AIlDA.jpg?itok=al2U37Is"}
{"name":"Le Millénaire","stars":1,"street":"4 rue Bertin","postalCode":"51100","city":"Reims","picture":"https://restaurant.michelin.fr/sites/mtpb2c_fr/files/styles/poi_detail_landscape/public/Le%20Mill%C3%A9naire.jpg?itok=Edvv2_yB"}
{"name":"L'Abeille","stars":2,"street":"10 Avenue d'Iéna","postalCode":"75016","city":"Paris 16","picture":"https://restaurant.michelin.fr/sites/mtpb2c_fr/files/styles/poi_detail_landscape/public/_WRR6_0fRp3HioNw.jpg?itok=vlMbuIMt"}
{"name":"Chapelle Saint-Martin","stars":1,"street":"33, Saint Martin du Fault","postalCode":"87510","city":"Nieul","picture":"https://restaurant.michelin.fr/sites/mtpb2c_fr/files/styles/poi_detail_landscape/public/NzTSe7rH7KSY3heg.jpg?itok=EBsY72XX"}
{"name":"La Table de La Butte","stars":1,"street":"10 rue de la Mer","postalCode":"29260","city":"PLOUIDER","picture":"https://restaurant.michelin.fr/sites/mtpb2c_fr/files/styles/poi_detail_landscape/public/La%20Butte9.jpg?itok=26kI1RN1"}
{"name":"Le Jardin des Remparts","stars":1,"street":"10 rue Hôtel-Dieu","postalCode":"21200","city":"Beaune","picture":"https://restaurant.michelin.fr/sites/mtpb2c_fr/files/styles/poi_detail_landscape/public/Le%20Jardin%20des%20Remparts_Beaune_1.jpg?itok=o3OuAyDt"}
{"name":"Frédéric Doucet","stars":1,"street":"2 avenue de la Libération","postalCode":"71120","city":"Charolles","picture":"https://restaurant.michelin.fr/sites/mtpb2c_fr/files/styles/poi_detail_landscape/public/Frederic-Doucet_Charolles_2.jpg?itok=FGvWL01o"}
{"name":"Le Restaurant","stars":1,"street":"13 rue des Beaux-Arts","postalCode":"75006","city":"Paris 06","picture":"https://restaurant.michelin.fr/sites/mtpb2c_fr/files/styles/poi_detail_landscape/public/HTTNiiOHKjZgVb4w.jpg?itok=pm-gU__2"}
{"name":"Faventia","stars":1,"street":"3100 route de Bagnols-en-Forêt","postalCode":"83440","city":"Tourrettes","picture":"https://restaurant.michelin.fr/sites/mtpb2c_fr/files/styles/poi_detail_landscape/public/TyQfCsRT-pi3OXRw.jpg?itok=5PCWSf9S"}
{"name":"Yam'Tcha","stars":1,"street":"121 r. St-Honoré","postalCode":"75001","city":"Paris","picture":"https://restaurant.michelin.fr/sites/mtpb2c_fr/files/styles/poi_detail_landscape/public/256653_1_0.jpg?itok=l5U7OjVh"}
{"name":"Le Pressoir","stars":1,"street":"7 r. de l'Hôpital","postalCode":"56890","city":"Saint-Avé","picture":"https://restaurant.michelin.fr/sites/mtpb2c_fr/files/styles/poi_detail_landscape/public/jdRSWO99CzBANH3w.jpg?itok=VSl-Zhf8"}
{"name":"La Marelle","stars":1,"street":"1593 av. de Lyon","postalCode":"01960","city":"PERONNAS","picture":"https://restaurant.michelin.fr/sites/mtpb2c_fr/files/styles/poi_detail_landscape/public/bJSDKUEx3phyTbvg.jpg?itok=JIWuf9eq"}
{"name":"Le M","stars":1,"street":"22 r. du Cdt-Drogou","postalCode":"29200","city":"Brest","picture":"https://restaurant.michelin.fr/sites/mtpb2c_fr/files/styles/poi_detail_landscape/public/233667_3_0.jpg?itok=LNlpiP0Y"}
{"name":"Auguste","stars":1,"street":"54 r. Bourgogne","postalCode":"75007","city":"Paris 07","picture":"https://restaurant.michelin.fr/sites/mtpb2c_fr/files/styles/poi_detail_landscape/public/0tT_q8DtHP2DPXXA.jpg?itok=TkWiVaOE"}
{"name":"L'Ekrin by Laurent Azoulay","stars":1,"street":"Route de la Montée","postalCode":"73550","city":"MERIBEL","picture":"https://restaurant.michelin.fr/sites/mtpb2c_fr/files/styles/poi_detail_landscape/public/iXTcqCzAPLqUoUvg.jpg?itok=jXfJUJRW"}
{"name":"Têtedoie","stars":1,"street":"4 Rue Professeur Pierre Marion","postalCode":"69005","city":"Lyon 05","picture":"https://restaurant.michelin.fr/sites/mtpb2c_fr/files/styles/poi_detail_landscape/public/Tetedoie_Lyon_Photo6.jpg?itok=zHST346I"}
{"name":"La Tour des Vents","stars":1,"street":"Le Moulin de Malfourat","postalCode":"24240","city":"Monbazillac","picture":"https://restaurant.michelin.fr/sites/mtpb2c_fr/files/styles/poi_detail_landscape/public/yHRE6VeDcmh62HTQ.jpg?itok=va8njvb8"}
{"name":"Loiseau rive Gauche","stars":1,"street":"5 rue de Bourgogne","postalCode":"75007","city":"Paris 07","picture":"https://restaurant.michelin.fr/sites/mtpb2c_fr/files/styles/poi_detail_landscape/public/R7Sam79TvoHGPQFQ.jpg?itok=aqtJhbVt"}
{"name":"Assiette Champenoise","stars":3,"street":"40 av. Paul Vaillant-Couturier","postalCode":"51430","city":"Tinqueux","picture":"https://restaurant.michelin.fr/sites/mtpb2c_fr/files/styles/poi_detail_landscape/public/image%20pple%26.jpg?itok=nvKBrmQl"}
{"name":"William Frachot","stars":2,"street":"5 rue Michelet","postalCode":"21000","city":"DIJON","picture":"https://restaurant.michelin.fr/sites/mtpb2c_fr/files/styles/poi_detail_landscape/public/frachot%20294_jf_frachot2017_im3_7044.jpeg?itok=wtaskiP-"}
{"name":"Hostellerie du Rosenmeer","stars":1,"street":"45 avenue de la Gare","postalCode":"67560","city":"ROSHEIM","picture":"https://restaurant.michelin.fr/sites/mtpb2c_fr/files/styles/poi_detail_landscape/public/ktQXavIR8KOWxlNA.jpg?itok=1VSWMWSD"}
{"name":"1217","stars":1,"street":"le bourg","postalCode":"69620","city":"Bagnols","picture":"https://restaurant.michelin.fr/sites/mtpb2c_fr/files/styles/poi_detail_landscape/public/W5SIihS6SL0UVJoQ.jpg?itok=y4pUdUFp"}
{"name":"Numéro 3","stars":1,"street":"3 rue du Général de Gaulle","postalCode":"78490","city":"Le Tremblay-sur-Mauldre","picture":"https://restaurant.michelin.fr/sites/mtpb2c_fr/files/styles/poi_detail_landscape/public/RpQmu1Gb0ENwRWUg.jpg?itok=49_hVobl"}
{"name":"La Licorne Royale","stars":1,"street":"27 Place Isaac Benserade","postalCode":"27480","city":"Lyons-la-Forêt","picture":"https://restaurant.michelin.fr/sites/mtpb2c_fr/files/styles/poi_detail_landscape/public/nSoMe2gtREmAUy8GFz_y6g.jpg?itok=_wTye0oH"}
{"name":"Le Relais Bernard Loiseau","stars":2,"street":"2, rue d'Argentine","postalCode":"21210","city":"Saulieu","picture":"https://restaurant.michelin.fr/sites/mtpb2c_fr/files/styles/poi_detail_landscape/public/9_51.jpg?itok=6MUYNb_1"}
{"name":"Henri et Joseph","stars":1,"street":"4 r. Léo-le-Bourgo","postalCode":"56100","city":"Lorient","picture":"https://restaurant.michelin.fr/sites/mtpb2c_fr/files/styles/poi_detail_landscape/public/123055_1_1.jpg?itok=R85PkGQI"}
{"name":"Les Tablettes de Jean-Louis Nomicos","stars":1,"street":"16 Avenue Bugeaud","postalCode":"75016","city":"Paris","picture":"https://restaurant.michelin.fr/sites/mtpb2c_fr/files/styles/poi_detail_landscape/public/WyRmO_SI4yICJoow.jpg?itok=fIcFBe6b"}
{"name":"Les Morainières","stars":2,"street":"route de Marétel","postalCode":"73170","city":"Jongieux","picture":"https://restaurant.michelin.fr/sites/mtpb2c_fr/files/styles/poi_detail_landscape/public/q0QZyMz_VN-Iuheg.jpg?itok=gkBxFOFl"}
{"name":"Restaurant du Château","stars":1,"street":"15 avenue des Reynats","postalCode":"24650","city":"Chancelade","picture":"https://restaurant.michelin.fr/sites/mtpb2c_fr/files/styles/poi_detail_landscape/public/12361_1_0.jpg?itok=BoAb5Y16"}
{"name":"Le Cerisier","stars":1,"street":"3 rue de la Gare","postalCode":"62840","city":"LAVENTIE","picture":"https://restaurant.michelin.fr/sites/mtpb2c_fr/files/styles/poi_detail_landscape/public/ZUQUmvTNKMQBsaYA.jpg?itok=o2NOQ91b"}
{"name":"Les Fresques","stars":1,"street":"13 Avenue des Mateirons","postalCode":"74500","city":"Évian-les-Bains","picture":"https://restaurant.michelin.fr/sites/mtpb2c_fr/files/styles/poi_detail_landscape/public/2dRw-fLjxcjtGSdA.jpg?itok=1zHdwS2p"}
{"name":"Le Chantecler","stars":2,"street":"37 Promenade des Anglais","postalCode":"06000","city":"NICE","picture":"https://restaurant.michelin.fr/sites/mtpb2c_fr/files/styles/poi_detail_landscape/public/Dos%20de%20chevreil%20aux%20marrons%20de%20Berre-les-Alpes-min.jpg?itok=L9StYUIO"}
{"name":"Palm Beach","stars":1,"street":"route des Iles Sanguinaires","postalCode":"20000","city":"Ajaccio","picture":"https://restaurant.michelin.fr/sites/mtpb2c_fr/files/styles/poi_detail_landscape/public/tYTkGQowcHejrZbA.jpg?itok=uU_DDzhR"}
{"name":"Dominique Bouchet","stars":1,"street":"11 Rue Treilhard","postalCode":"75008","city":"Paris","picture":"https://restaurant.michelin.fr/sites/mtpb2c_fr/files/styles/poi_detail_landscape/public/uTQUSrSUN3FHQ2CQ.jpg?itok=bRz6uQG3"}
{"name":"Le Clos des Sens","stars":2,"street":"13 r. J. -Mermoz","postalCode":"74940","city":"Annecy","picture":"https://restaurant.michelin.fr/sites/mtpb2c_fr/files/styles/poi_detail_landscape/public/Le-Clos-des-Sens-2016_09_21-REPORTAGE-salle-terrasse-5.jpg?itok=YBD-ZjPJ"}
{"name":"L'Aparté","stars":1,"street":"21 Rue de l’Europe","postalCode":"31850","city":"MONTRABE","picture":"https://restaurant.michelin.fr/sites/mtpb2c_fr/files/styles/poi_detail_landscape/public/27QQCOC2mE82thrA.jpg?itok=ggb9qUqb"}
{"name":"La Bonne Auberge","stars":1,"street":"15 r. Nationale","postalCode":"57350","city":"Stiring-Wendel","picture":"https://restaurant.michelin.fr/sites/mtpb2c_fr/files/styles/poi_detail_landscape/public/8-SS-vBSzFHCWJkw.jpg?itok=z6U8OmQT"}
{"name":"Le Chiberta","stars":1,"street":"3 Rue Arsène Houssaye","postalCode":"75008","city":"Paris 08","picture":"https://restaurant.michelin.fr/sites/mtpb2c_fr/files/styles/poi_detail_landscape/public/Chiberta.jpg?itok=nD0RVIqm"}
{"name":"Le Pavillon des Boulevards","stars":1,"street":"120 r. Croix-de-Seguey","postalCode":"33000","city":"Bordeaux","picture":"https://restaurant.michelin.fr/sites/mtpb2c_fr/files/styles/poi_detail_landscape/public/Le-Pavillon-de-Boulevards_Bordeaux_4.jpg?itok=H2pYW0oM"}
{"name":"L'Auberge de la Pomme","stars":1,"street":"44 rue de l' eure","postalCode":"27340","city":"Les Damps","picture":"https://restaurant.michelin.fr/sites/mtpb2c_fr/files/styles/poi_detail_landscape/public/w3RLmSH4N1M6Npzg.jpg?itok=QUS4OD4v"}
{"name":"La Barbacane","stars":1,"street":"Place Auguste-Pierre-Pont","postalCode":"11000","city":"Carcassonne","picture":"https://restaurant.michelin.fr/sites/mtpb2c_fr/files/styles/poi_detail_landscape/public/La-Barbacane_Carcassonne_6.jpg?itok=g9K4V2JF"}
{"name":"Pierre Orsi","stars":1,"street":"Place Kléber","postalCode":"69006","city":"Lyon 06","picture":"https://restaurant.michelin.fr/sites/mtpb2c_fr/files/styles/poi_detail_landscape/public/5LRN-qsbFpaSeEsA.jpg?itok=ecehGVcm"}
{"name":"La Bonne Étape","stars":1,"street":"chemin du lac","postalCode":"04160","city":"Château-Arnoux","picture":"https://restaurant.michelin.fr/sites/mtpb2c_fr/files/styles/poi_detail_landscape/public/oLCwY-hXTzyJmItHXyVkYA.jpg?itok=-BG-g_Rr"}
{"name":"Gill","stars":2,"street":"9 quai de la Bourse","postalCode":"76000","city":"Rouen","picture":"https://restaurant.michelin.fr/sites/mtpb2c_fr/files/styles/poi_detail_landscape/public/Gill.jpg?itok=75DbYON0"}
{"name":"Mirazur","stars":2,"street":"30, Avenue Aristide Briand","postalCode":"06500","city":"Menton","picture":"https://restaurant.michelin.fr/sites/mtpb2c_fr/files/styles/poi_detail_landscape/public/Mirazur2.jpg?itok=5odGV7A5"}
{"name":"Au Trou Gascon","stars":1,"street":"40 rue Taine","postalCode":"75012","city":"Paris","picture":"https://restaurant.michelin.fr/sites/mtpb2c_fr/files/styles/poi_detail_landscape/public/Q1QyayIqHG21oZuA.jpg?itok=hBg7Uza0"}
{"name":"Dyades au Domaine des Étangs","stars":1,"street":"Les Etangs","postalCode":"16310","city":"MASSIGNAC","picture":"https://restaurant.michelin.fr/sites/mtpb2c_fr/files/styles/poi_detail_landscape/public/xRTt2fdXmsfnwMuA.jpg?itok=D9RoJgpc"}
{"name":"L'Auberge Basque","stars":1,"street":"quartier Helbarron","postalCode":"64310","city":"Saint-Pée-sur-Nivelle","picture":"https://restaurant.michelin.fr/sites/mtpb2c_fr/files/styles/poi_logo_landscape/public/UMRoGMiqCnfn6k9A.jpg?itok=M5Ufzk1a"}
{"name":"Château de Courban","stars":1,"street":"7 rue du Lavoir","postalCode":"21520","city":"Courban","picture":"https://restaurant.michelin.fr/sites/mtpb2c_fr/files/styles/poi_detail_landscape/public/prRfK7JD1V6u13Iw.jpg?itok=y1g1XDZb"}
{"name":"Mère Brazier","stars":2,"street":"12 rue Royale","postalCode":"69001","city":"LYON","picture":"https://restaurant.michelin.fr/sites/mtpb2c_fr/files/styles/poi_detail_landscape/public/M%C3%A8re_Brazier_Paris%20.jpg?itok=HgyovPQG"}
{"name":"Paloma","stars":2,"street":"47 Avenue du Moulin de la Croix","postalCode":"06250","city":"Mougins","picture":"https://restaurant.michelin.fr/sites/mtpb2c_fr/files/styles/poi_detail_landscape/public/Bar%20de%20Ligne%20aux%20C%C3%A8pes-JUIN%202017.jpg?itok=OzrFDktc"}
{"name":"Le Taillevent","stars":2,"street":"15 Rue Lamennais","postalCode":"75008","city":"Paris","picture":"https://restaurant.michelin.fr/sites/mtpb2c_fr/files/styles/poi_detail_landscape/public/FB%203-min.jpg?itok=EdCNKICN"}
{"name":"Domaine de Clairefontaine","stars":1,"street":"chemin des Fontanettes","postalCode":"38121","city":"Chonas-l'Amballan","picture":"https://restaurant.michelin.fr/sites/mtpb2c_fr/files/styles/poi_detail_landscape/public/THT0KYcX7j4xkMLQ.jpg?itok=ftZBiEAE"}
{"name":"G.a. au Manoir de Rétival","stars":1,"street":"2 rue St. Clair","postalCode":"76490","city":"Caudebec-en-Caux","picture":"https://restaurant.michelin.fr/sites/mtpb2c_fr/files/styles/poi_detail_landscape/public/cBRayU9p0ZvypW_w.jpg?itok=NDpL9bD8"}
{"name":"Le Fanal","stars":1,"street":"17 Avenue du Fontaulé","postalCode":"66650","city":"Banyuls-sur-Mer","picture":"https://restaurant.michelin.fr/sites/mtpb2c_fr/files/styles/poi_detail_landscape/public/sOTAi743yyAQirnA.jpg?itok=ZcIPh25B"}
{"name":"Le Magasin aux Vivres","stars":1,"street":"5 Avenue Ney","postalCode":"57000","city":"Metz","picture":"https://restaurant.michelin.fr/sites/mtpb2c_fr/files/styles/poi_detail_landscape/public/VBTNu_peZEZODGOA.jpg?itok=q23akGE6"}
{"name":"Carré des Feuillants","stars":2,"street":"14 rue de Castiglione","postalCode":"75001","city":"Paris 01","picture":"https://restaurant.michelin.fr/sites/mtpb2c_fr/files/styles/poi_detail_landscape/public/JsQzWxcDmOBN_Zhw.jpg?itok=e2SrQraU"}
{"name":"Le Quinzième - Cyril Lignac","stars":1,"street":"14 rue Cauchy","postalCode":"75015","city":"Paris","picture":"https://restaurant.michelin.fr/sites/mtpb2c_fr/files/styles/poi_detail_landscape/public/TruiteBanka_LeQuinzieme_CyrilLignac%28c%29ThomasDhellemmes.jpg?itok=rmBfpNpP"}
{"name":"Le Violon d'Ingres","stars":1,"street":"135 Rue Saint-Dominique","postalCode":"75007","city":"Paris","picture":"https://restaurant.michelin.fr/sites/mtpb2c_fr/files/styles/poi_detail_landscape/public/4_176.jpg?itok=nz36hiqD"}
{"name":"L'Almandin","stars":1,"street":"Boulevard de l'Almandin","postalCode":"66750","city":"Saint-Cyprien","picture":"https://restaurant.michelin.fr/sites/mtpb2c_fr/files/styles/poi_detail_landscape/public/christophe-schmitt-almandin.jpg?itok=W_vw-SOD"}
{"name":"Château de Pray","stars":1,"street":"Rue du Cèdre","postalCode":"37400","city":"Amboise","picture":"https://restaurant.michelin.fr/sites/mtpb2c_fr/files/styles/poi_detail_landscape/public/nfReuzsYxca_DjBQ.jpg?itok=Cq8YM6-9"}
{"name":"Patrick Jeffroy","stars":2,"street":"20 rue du Kelenn","postalCode":"29660","city":"Carantec","picture":"https://restaurant.michelin.fr/sites/mtpb2c_fr/files/styles/poi_detail_landscape/public/langouste%20%287%29_0.jpg?itok=YhouKqyK"}
{"name":"Le Hittau","stars":1,"street":"1 rue du Nouaou","postalCode":"40230","city":"SAINT-VINCENT-DE-TYROSSE","picture":"https://restaurant.michelin.fr/sites/mtpb2c_fr/files/styles/poi_detail_landscape/public/tdQ9uo0wCLUoMTfw.jpg?itok=1jGwygja"}
{"name":"Le Moulin de la Gorce","stars":1,"street":"D17","postalCode":"87800","city":"La Roche-l'Abeille","picture":"https://restaurant.michelin.fr/sites/mtpb2c_fr/files/styles/poi_detail_landscape/public/PgQv6cpUeCDW3sFw.jpg?itok=xKsMZRIZ"}
{"name":"La Liégeoise","stars":1,"street":"digue de mer","postalCode":"62930","city":"Wimereux","picture":"https://restaurant.michelin.fr/sites/mtpb2c_fr/files/styles/poi_detail_landscape/public/ZwRmigI9Yb-__Dew.jpg?itok=2eOmPnwG"}
{"name":"Le Saint-James","stars":1,"street":"3 pl. Camille-Hostein","postalCode":"33270","city":"BOULIAC","picture":"https://restaurant.michelin.fr/sites/mtpb2c_fr/files/styles/poi_detail_landscape/public/13178912_628874113929425_6375026556486534536_n.jpg?itok=jO9ghGr7"}
{"name":"La Dame de Pic","stars":1,"street":"20 Rue du Louvre","postalCode":"75001","city":"Paris 01","picture":"https://restaurant.michelin.fr/sites/mtpb2c_fr/files/styles/poi_detail_landscape/public/SeQ_2HWrU12JJiWw.jpg?itok=g0ShzyLw"}
{"name":"Le Moulin du Roc","stars":1,"street":"Avenue Eugène Le Roy","postalCode":"24530","city":"Champagnac-de-Belair","picture":"https://restaurant.michelin.fr/sites/mtpb2c_fr/files/styles/poi_detail_landscape/public/MoulinduRocCochon.jpg?itok=G6vOFCcT"}
{"name":"Sur Mesure par Thierry Marx","stars":2,"street":"251 Rue Saint Honoré","postalCode":"75001","city":"Paris","picture":"https://restaurant.michelin.fr/sites/mtpb2c_fr/files/styles/poi_detail_landscape/public/1_250.jpg?itok=iIbPrYCj"}
{"name":"Le Cloître","stars":1,"street":"Le Cloitre","postalCode":"04300","city":"Mane","picture":"https://restaurant.michelin.fr/sites/mtpb2c_fr/files/styles/poi_detail_landscape/public/OCRDKHzIwlMKgGBQ.jpg?itok=7RwDc6-J"}
{"name":"Le Kléber","stars":1,"street":"6 r. A. -Dumont","postalCode":"26400","city":"Crest","picture":"https://restaurant.michelin.fr/sites/mtpb2c_fr/files/styles/poi_detail_landscape/public/MvTvqiRqknuT6ZRA.jpg?itok=7HFqdfOD"}
{"name":"Hostellerie Bérard","stars":1,"street":"Avenue Gabriel-Péri","postalCode":"83740","city":"LA-CADIERE-D'AZUR","picture":"https://restaurant.michelin.fr/sites/mtpb2c_fr/files/styles/poi_detail_landscape/public/LTRa-0hOmBKPFnEQ.jpg?itok=WOyWlPZi"}
{"name":"Le Petit Nice","stars":3,"street":"Anse de Maldormé - Corniche J. F. Kennedy","postalCode":"13007","city":"Marseille 07","picture":"https://restaurant.michelin.fr/sites/mtpb2c_fr/files/styles/poi_detail_landscape/public/Le-Petit-Nice-Passedat-front-view-min.jpg?itok=7qznzBxv"}
{"name":"Hostellerie de l'Abbaye de la Celle","stars":1,"street":"10 Place Général de Gaulle","postalCode":"83170","city":"La Celle","picture":"https://restaurant.michelin.fr/sites/mtpb2c_fr/files/styles/poi_detail_landscape/public/gzSfWObGajS9I9qw.jpg?itok=Bw-tlqz-"}
{"name":"Chez Michèle","stars":1,"street":"57 rue Principale","postalCode":"57810","city":"Languimberg","picture":"https://restaurant.michelin.fr/sites/mtpb2c_fr/files/styles/poi_detail_landscape/public/0nl5XQewSumid-TFOFPSqA.jpg?itok=-x9dAgvb"}
{"name":"L'Orangerie du Château","stars":1,"street":"1 Avenue du Docteur Jean Laigret","postalCode":"41000","city":"Blois","picture":"https://restaurant.michelin.fr/sites/mtpb2c_fr/files/styles/poi_detail_landscape/public/cpSaWktw6mwHjyYg.jpg?itok=eSVWiA93"}
{"name":"Initial","stars":1,"street":"24 Rue Saint-Manvieu","postalCode":"14000","city":"Caen","picture":"https://restaurant.michelin.fr/sites/mtpb2c_fr/files/styles/poi_detail_landscape/public/NxSnmpldEUlpJcYA.jpg?itok=Y5rK1bIe"}
{"name":"Fanny Rey & Jonathan Wahid","stars":1,"street":"12, boulevard Mirabeau","postalCode":"13210","city":"SAINT REMY DE PROVENCE","picture":"https://restaurant.michelin.fr/sites/mtpb2c_fr/files/styles/poi_detail_landscape/public/Araigne%CC%81e%20de%20casier%201-min.jpg?itok=WHRH7xSD"}
{"name":"Pierre Gagnaire","stars":3,"street":"6 Rue Balzac","postalCode":"75008","city":"Paris 08","picture":"https://restaurant.michelin.fr/sites/mtpb2c_fr/files/styles/poi_detail_landscape/public/bIQyOdJRyQlrlKkg.jpg?itok=Pt0NS195"}
{"name":"Julien Binz","stars":1,"street":"7 Rue des Cigognes","postalCode":"68770","city":"Ammerschwihr","picture":"https://restaurant.michelin.fr/sites/mtpb2c_fr/files/styles/poi_detail_landscape/public/3dQReUJ4FfCArhJQ.jpg?itok=C-WYLeJQ"}
{"name":"Alléno Paris au Pavillon Ledoyen","stars":3,"street":"8 avenue Dutuit","postalCode":"75008","city":"Paris","picture":"https://restaurant.michelin.fr/sites/mtpb2c_fr/files/styles/poi_detail_landscape/public/RvQYyL_HITC4gjsQ.jpg?itok=HV1ZYo0o"}
{"name":"Le Pergolèse","stars":1,"street":"40 Rue Pergolèse","postalCode":"75116","city":"Paris","picture":"https://restaurant.michelin.fr/sites/mtpb2c_fr/files/styles/poi_detail_landscape/public/QATIaDDLKysfGuxg.jpg?itok=aDzAbx_Z"}
{"name":"Le Prince Noir - Vivien Durand","stars":1,"street":"1 rue du Prince Noir","postalCode":"33310","city":"Lormont","picture":"https://restaurant.michelin.fr/sites/mtpb2c_fr/files/styles/poi_detail_landscape/public/Prince%20noir8.jpg?itok=uWKrEO2g"}
{"name":"La Chaumière","stars":1,"street":"346 av. du Mar. -Juin","postalCode":"39100","city":"Dole","picture":"https://restaurant.michelin.fr/sites/mtpb2c_fr/files/styles/poi_detail_landscape/public/o5R_Kz8mcfH1qDfQ.jpg?itok=cVY9K9gB"}
{"name":"Apicius","stars":1,"street":"20 r. d'Artois","postalCode":"75008","city":"PARIS","picture":"https://restaurant.michelin.fr/sites/mtpb2c_fr/files/styles/poi_detail_landscape/public/Apicius5.jpg?itok=Od6HKrWq"}
{"name":"Alain Llorca","stars":1,"street":"350 Route de Saint-Paul","postalCode":"06480","city":"La Colle-sur-Loup","picture":"https://restaurant.michelin.fr/sites/mtpb2c_fr/files/styles/poi_detail_landscape/public/Alain-Llorca-restaurant-e1472714552931-min.jpg?itok=mRXKmyvc"}
{"name":"Le Baudelaire","stars":1,"street":"8 rue Duphot","postalCode":"75001","city":"Paris 01","picture":"https://restaurant.michelin.fr/sites/mtpb2c_fr/files/styles/poi_detail_landscape/public/Le%20Baudelaire%20J17_150-Panorama%20copie.jpg?itok=9-jWCxq9"}
{"name":"Loiseau des Vignes","stars":1,"street":"31 Rue Jean Francois Maufoux","postalCode":"21200","city":"Beaune","picture":"https://restaurant.michelin.fr/sites/mtpb2c_fr/files/styles/poi_detail_landscape/public/Loiseudesvignes.jpg?itok=5Pt6D9hn"}
{"name":"Mickaël Féval","stars":1,"street":"11 Petite-Rue-St-Jean","postalCode":"13100","city":"Aix-en-Provence"}
{"name":"St-James Paris","stars":1,"street":"43 av. Bugeaud","postalCode":"75116","city":"Paris"}
{"name":"Le Neuvième Art","stars":2,"street":"173 r. Cuvier","postalCode":"69006","city":"Lyon"}
{"name":"Laurent","stars":1,"street":"41 av. Gabriel","postalCode":"75008","city":"Paris","picture":"https://restaurant.michelin.fr/sites/mtpb2c_fr/files/styles/poi_detail_landscape/public/vVQPOc7LpW84_KPQ.jpg?itok=1ONqQsef"}
{"name":"Le Beaulieu","stars":1,"street":"34 Bis Place République","postalCode":"72000","city":"Le Mans","picture":"https://restaurant.michelin.fr/sites/mtpb2c_fr/files/styles/poi_detail_landscape/public/0KSZqIxpl_-_mMkQ.jpg?itok=JyLY6Mf6"}
{"name":"Saturne","stars":1,"street":"17 r. N.-D.-des-Victoires","postalCode":"75002","city":"Paris"}
{"name":"Gaya Rive Gauche par Pierre Gagnaire","stars":1,"street":"44 r. du Bac","postalCode":"75007","city":"Paris","picture":"https://restaurant.michelin.fr/sites/mtpb2c_fr/files/styles/poi_detail_landscape/public/6007_1_0.jpg?itok=dWjPsLbT"}
{"name":"La Maison des Bois - Marc Veyrat","stars":3,"street":"Chemin Rural de Manigod au Col de la Croix Fry","postalCode":"74230","city":"Manigod"}
{"name":"Flaveurs","stars":1,"street":"32 Grande-Rue","postalCode":"26000","city":"Valence","picture":"https://restaurant.michelin.fr/sites/mtpb2c_fr/files/styles/poi_detail_landscape/public/yLRG-1b8iB0acg-A.jpg?itok=d2PQYJzZ"}
{"name":"Intuition","stars":1,"street":"1 r. Alsace-Lorraine","postalCode":"50000","city":"Saint-Lô","picture":"https://restaurant.michelin.fr/sites/mtpb2c_fr/files/styles/poi_detail_landscape/public/CqQEC0aiLYq3DUtA.jpg?itok=qbbcAFVj"}
{"name":"Les Tables de Gaspard","stars":1,"street":"r. Principale","postalCode":"05600","city":"St-Crépin"}
{"name":"La Ferme de l'Hospital","stars":1,"street":"rte du golf","postalCode":"74160","city":"Bossey","picture":"https://restaurant.michelin.fr/sites/mtpb2c_fr/files/styles/poi_logo_landscape/public/_qT4yHK8qUSdHOcQ.jpg?itok=uwDgdA4r"}
{"name":"L'Esquisse","stars":1,"street":"21 rue Royale","postalCode":"74000","city":"Annecy","picture":"https://restaurant.michelin.fr/sites/mtpb2c_fr/files/styles/poi_detail_landscape/public/jrQeaVQ8Fq2kwOvA.jpg?itok=V7FIejsp"}
{"name":"La Réserve Rimbaud","stars":1,"street":"820 Avenue de Saint-Maur","postalCode":"34000","city":"Montpellier","picture":"https://restaurant.michelin.fr/sites/mtpb2c_fr/files/styles/poi_detail_landscape/public/BDTcS1WiaIpzGqog.jpg?itok=5uwNayuJ"}
{"name":"Stéphane Carbone","stars":1,"street":"14 r. de Courtonne","postalCode":"14000","city":"Caen","picture":"https://restaurant.michelin.fr/sites/mtpb2c_fr/files/styles/poi_detail_landscape/public/231218_1_1.jpg?itok=MM_Xz4Ks"}
{"name":"Elsa","stars":1,"street":"Monte-Carlo Beach - Avenue Princesse Grace","postalCode":"06190","city":"Roquebrune Cap-Martin","picture":"https://restaurant.michelin.fr/sites/mtpb2c_fr/files/styles/poi_detail_landscape/public/TbQrqRFl_-KCmPMw.jpg?itok=GwDimZFh"}
{"name":"Auberge La Fenière","stars":1,"street":"D943","postalCode":"84160","city":"Cadenet","picture":"https://restaurant.michelin.fr/sites/mtpb2c_fr/files/styles/poi_detail_landscape/public/ekTUOuJQe65cclnQ.jpg?itok=5nyw7hyy"}
{"name":"L'Étang du Moulin","stars":1,"street":"5 chemin de l'Etang du Moulin","postalCode":"25210","city":"Bonnétage","picture":"https://restaurant.michelin.fr/sites/mtpb2c_fr/files/styles/poi_detail_landscape/public/TQS2KS10OB4zR1jg.jpg?itok=x6ngoLNQ"}
{"name":"Hervé Busset","stars":1,"street":"D901","postalCode":"12320","city":"Conques","picture":"https://restaurant.michelin.fr/sites/mtpb2c_fr/files/styles/poi_detail_landscape/public/NlRo6GDJKajchfjA.jpg?itok=cAejDcV9"}
{"name":"L'Axel","stars":1,"street":"43 r. de France","postalCode":"77300","city":"Fontainebleau","picture":"https://restaurant.michelin.fr/sites/mtpb2c_fr/files/styles/poi_detail_landscape/public/c-StKXL7pciz_CTg.jpg?itok=_iw-8zoJ"}
{"name":"Maison Jeunet","stars":2,"street":"9 r. de l'Hôtel-de-Ville","postalCode":"39600","city":"Arbois","picture":"https://restaurant.michelin.fr/sites/mtpb2c_fr/files/styles/poi_detail_landscape/public/NQQ2aa2VpM7Zdf_Q.jpg?itok=_yS6UqbS"}
{"name":"I Salti","stars":1,"street":"route du Reginu","postalCode":"20226","city":"Belgodère","picture":"https://restaurant.michelin.fr/sites/mtpb2c_fr/files/styles/poi_detail_landscape/public/xLqaQOR-cor0Dc.jpg?itok=VqpANYp3"}
{"name":"Casadelmar","stars":2,"street":"Route de la Plage de Palombaggia","postalCode":"20137","city":"Porto-Vecchio","picture":"https://restaurant.michelin.fr/sites/mtpb2c_fr/files/styles/poi_detail_landscape/public/26SvKAV9DdMHUYuQ.jpg?itok=MJ6nmkZG"}
{"name":"Dan B. - La Table de Ventabren","stars":1,"street":"r. F. -Mistral","postalCode":"13122","city":"Ventabren","picture":"https://restaurant.michelin.fr/sites/mtpb2c_fr/files/styles/poi_detail_landscape/public/-fTwaH9gmBUkK33A.jpg?itok=sD-kHNeX"}
{"name":"La Table du Connétable","stars":1,"street":"4 Rue du Connétable","postalCode":"60500","city":"Chantilly","picture":"https://restaurant.michelin.fr/sites/mtpb2c_fr/files/styles/poi_detail_landscape/public/pTTxqL4SJQAWEx4g.jpg?itok=kyoqHmIS"}
{"name":"Christopher Coutanceau","stars":2,"street":"Promenade de la Concurrence","postalCode":"17000","city":"La Rochelle","picture":"https://restaurant.michelin.fr/sites/mtpb2c_fr/files/styles/poi_detail_landscape/public/IMG_0003%20%282%29-min_1.JPG?itok=QFfXHyuX"}
{"name":"L'Escarbille","stars":1,"street":"8 Rue de Vélizy","postalCode":"92190","city":"Meudon","picture":"https://restaurant.michelin.fr/sites/mtpb2c_fr/files/styles/poi_detail_landscape/public/E_QmexG5pZOJF29Q.jpg?itok=7aZEc1Kk"}
{"name":"Auberge La Pomme d'Api","stars":1,"street":"49 r. Verderel","postalCode":"29250","city":"Saint-Pol-de-Léon","picture":"https://restaurant.michelin.fr/sites/mtpb2c_fr/files/styles/poi_detail_landscape/public/ixSiqO0zlbcuFQ1A.jpg?itok=hhYZkwlP"}
{"name":"Hostellerie Les Gorges de Pennafort","stars":1,"street":"8660 RD 25","postalCode":"83830","city":"Callas","picture":"https://restaurant.michelin.fr/sites/mtpb2c_fr/files/styles/poi_detail_landscape/public/kaSLahITTidJKWRA.jpg?itok=ctpVhzJc"}
{"name":"Une Île","stars":1,"street":"9 r. Max-Richard","postalCode":"49000","city":"Angers","picture":"https://restaurant.michelin.fr/sites/mtpb2c_fr/files/styles/poi_detail_landscape/public/234610_1_0.jpg?itok=NixmdZM2"}
{"name":"Les Trois Rochers","stars":1,"street":"16 rue du Phare","postalCode":"29120","city":"Sainte-Marine","picture":"https://restaurant.michelin.fr/sites/mtpb2c_fr/files/styles/poi_detail_landscape/public/Exterieur---079-compressor.jpg?itok=XtvUKd4Y"}
{"name":"La Madeleine","stars":1,"street":"1 Rue Alsace-Lorraine","postalCode":"89100","city":"Sens","picture":"https://restaurant.michelin.fr/sites/mtpb2c_fr/files/styles/poi_detail_landscape/public/NqQ9yYAeGAp2t8gg.jpg?itok=uTtC2nGZ"}
{"name":"Le Belrose","stars":1,"street":"Boulevard des Crêtes","postalCode":"83580","city":"Gassin","picture":"https://restaurant.michelin.fr/sites/mtpb2c_fr/files/styles/poi_detail_landscape/public/VILLA%20BELROSE-189.jpg?itok=C607OCWO"}
{"name":"Le Bouche à Oreille","stars":1,"street":"11 r. de la Chapelle","postalCode":"91150","city":"Boutervilliers","picture":"https://restaurant.michelin.fr/sites/mtpb2c_fr/files/styles/poi_detail_landscape/public/U8Sv6Z_hyhLtWf9w.jpg?itok=jdYW-X8u"}
{"name":"Le Grand Bleu","stars":1,"street":"43 av. de la Gare","postalCode":"24200","city":"Sarlat-la-Canéda","picture":"https://restaurant.michelin.fr/sites/mtpb2c_fr/files/styles/poi_detail_landscape/public/NbQweWuHHUhUO8fQ.jpg?itok=zXv6lkTR"}
{"name":"Louison","stars":1,"street":"2750 route de la cride","postalCode":"13610","city":"Le Puy-Sainte-Réparade","picture":"https://restaurant.michelin.fr/sites/mtpb2c_fr/files/styles/poi_detail_landscape/public/Louison.jpg?itok=31RO3ou8"}
{"name":"Maison Lameloise","stars":3,"street":"36 pl. d'Armes","postalCode":"71150","city":"Chagny","picture":"https://restaurant.michelin.fr/sites/mtpb2c_fr/files/styles/poi_detail_landscape/public/0LTkWgJ3GqtL3tpw.jpg?itok=hjEPSsTd"}
{"name":"La Bergerie","stars":1,"street":"D999","postalCode":"63490","city":"Sarpoil","picture":"https://restaurant.michelin.fr/sites/mtpb2c_fr/files/styles/poi_detail_landscape/public/VoQnKpMVCtroZFIw.jpg?itok=S3i22vQN"}
{"name":"Alliance","stars":1,"street":"5 Rue de Poissy","postalCode":"75005","city":"Paris","picture":"https://restaurant.michelin.fr/sites/mtpb2c_fr/files/styles/poi_detail_landscape/public/9fSymZDBF8DetJ0Q.jpg?itok=XYwVwA8r"}
{"name":"Le Pavé d'Auge","stars":1,"street":"D49","postalCode":"14430","city":"Beuvron-en-Auge","picture":"https://restaurant.michelin.fr/sites/mtpb2c_fr/files/styles/poi_detail_landscape/public/RASByg6b6aZOzNhw.jpg?itok=dI4S_QKi"}
{"name":"Les Prés d'Eugénie - Michel Guérard","stars":3,"street":"pl. de l'Impératrice","postalCode":"40320","city":"Eugénie-les-Bains","picture":"https://restaurant.michelin.fr/sites/mtpb2c_fr/files/styles/poi_detail_landscape/public/qGSZmg15gPvYBlCA.jpg?itok=px8S2VTG"}
{"name":"Aida","stars":1,"street":"1 r. Pierre Leroux","postalCode":"75007","city":"Paris 07","picture":"https://restaurant.michelin.fr/sites/mtpb2c_fr/files/styles/poi_detail_landscape/public/L8R3C2sHRrcAIIiw.jpg?itok=Z5yCTqB_"}
{"name":"Auberge du Cellier","stars":1,"street":"1 Rue de Sainte-Eugénie","postalCode":"66720","city":"Montner","picture":"https://restaurant.michelin.fr/sites/mtpb2c_fr/files/styles/poi_detail_landscape/public/coQSKKstLMLge62g.jpg?itok=6dvF5B8Y"}
{"name":"Le Château de Sable","stars":1,"street":"38 r. de l'Europe","postalCode":"29840","city":"Porspoder","picture":"https://restaurant.michelin.fr/sites/mtpb2c_fr/files/styles/poi_detail_landscape/public/1MQ9mNR08a0tHLKQ.jpg?itok=tra_8dml"}
{"name":"Ar Men Du","stars":1,"street":"47 rue des îles","postalCode":"29920","city":"Névez","picture":"https://restaurant.michelin.fr/sites/mtpb2c_fr/files/styles/poi_detail_landscape/public/Ar%20Men%20Du.jpg?itok=VGmmdE_y"}
{"name":"Penati al Baretto","stars":1,"street":"9 rue Balzac","postalCode":"75008","city":"Paris 08","picture":"https://restaurant.michelin.fr/sites/mtpb2c_fr/files/styles/poi_detail_landscape/public/Penati3.jpg?itok=o64Fej49"}
{"name":"Le Gindreau","stars":2,"street":"D5","postalCode":"46150","city":"Saint-Médard","picture":"https://restaurant.michelin.fr/sites/mtpb2c_fr/files/styles/poi_detail_landscape/public/CsS0G2ZYtfIDCNaA.jpg?itok=-9KtzbY0"}
{"name":"Le Montgomerie","stars":2,"street":"356 rte de l'Altiport","postalCode":"73120","city":"Courchevel 1850","picture":"https://restaurant.michelin.fr/sites/mtpb2c_fr/files/styles/poi_detail_landscape/public/Montgomerie_0.jpg?itok=3WX7S8vu"}
{"name":"Le Carmin","stars":1,"street":"4B Place Carnot","postalCode":"21200","city":"Beaune","picture":"https://restaurant.michelin.fr/sites/mtpb2c_fr/files/styles/poi_detail_landscape/public/3KRFW2rZhVbeXXTw.jpg?itok=XytQkmx_"}
{"name":"L'Oasis","stars":2,"street":"6 rue Jean-Honoré Carle","postalCode":"06210","city":"La Napoule","picture":"https://restaurant.michelin.fr/sites/mtpb2c_fr/files/styles/poi_detail_landscape/public/p-SNy5aLyd6rNWJA.jpg?itok=-hosjZtg"}
{"name":"Maximin Hellio","stars":1,"street":"64 Rue Gambetta","postalCode":"14800","city":"DEAUVILLE","picture":"https://restaurant.michelin.fr/sites/mtpb2c_fr/files/styles/poi_detail_landscape/public/Saint-pierre%20de%20petit%20bateau%20-h1024.jpg?itok=gH3MspN5"}
{"name":"Benoit","stars":1,"street":"20 Rue St-Martin","postalCode":"75004","city":"Paris 04","picture":"https://restaurant.michelin.fr/sites/mtpb2c_fr/files/styles/poi_detail_landscape/public/5826_1_0.jpg?itok=wbqBWKt0"}
{"name":"Les Jardins de l'Espadon","stars":1,"street":"15 place Vendôme","postalCode":"75001","city":"Paris","picture":"https://restaurant.michelin.fr/sites/mtpb2c_fr/files/styles/poi_detail_landscape/public/A%20AJOUTER%20%281%29.jpg?itok=OMWs_g6u"}
{"name":"L'Orangerie","stars":1,"street":"31 Avenue George-V","postalCode":"75008","city":"Paris","picture":"https://restaurant.michelin.fr/sites/mtpb2c_fr/files/styles/poi_detail_landscape/public/Orangerie-Paris.jpg?itok=oIdK15EI"}
{"name":"Hostellerie la Montagne","stars":1,"street":"10 rue Pisseloup","postalCode":"52330","city":"COLOMBEY-LES-DEUX-EGLISES","picture":"https://restaurant.michelin.fr/sites/mtpb2c_fr/files/styles/poi_detail_landscape/public/4qTOCSlJNij-sf2w.jpg?itok=REBwJOxL"}
{"name":"Auberge des Saints Pères","stars":1,"street":"212 av. de Nonneville","postalCode":"93600","city":"Aulnay-sous-Bois","picture":"https://restaurant.michelin.fr/sites/mtpb2c_fr/files/styles/poi_detail_landscape/public/kPRgefQmNywRqtFQ.jpg?itok=dsUmW_4M"}
{"name":"Au Vieux Couvent","stars":1,"street":"6 r. des Chanoines","postalCode":"67860","city":"Rhinau","picture":"https://restaurant.michelin.fr/sites/mtpb2c_fr/files/styles/poi_detail_landscape/public/NnQuW0IigcPaXPqw.jpg?itok=Sq0YT7ow"}
{"name":"Entre Vigne et Garrigue","stars":1,"street":"600 route de Saint Bruno","postalCode":"30131","city":"Pujaut","picture":"https://restaurant.michelin.fr/sites/mtpb2c_fr/files/styles/poi_detail_landscape/public/_MG_8322.jpg?itok=4B1GuQxt"}
{"name":"Greuze","stars":1,"street":"1 r. A. Thibaudet","postalCode":"71700","city":"Tournus","picture":"https://restaurant.michelin.fr/sites/mtpb2c_fr/files/styles/poi_detail_landscape/public/greuze_1.jpg?itok=QTceJa89"}
{"name":"Le Relais des Moines","stars":1,"street":"route de Ste-Roseline","postalCode":"83460","city":"Les Arcs","picture":"https://restaurant.michelin.fr/sites/mtpb2c_fr/files/styles/poi_detail_landscape/public/05%20SANJOU%20TERRASSE%2001%20%282%29.jpg?itok=Ne5Kgoe9"}
{"name":"Une Table au Sud","stars":1,"street":"2 quai du Port","postalCode":"13002","city":"Marseille","picture":"https://restaurant.michelin.fr/sites/mtpb2c_fr/files/styles/poi_detail_landscape/public/1mQESFwPq5vwJNFg.jpg?itok=eklDaVWZ"}
{"name":"Le 1947","stars":3,"street":"Cheval Blanc Courchevel - Le Jardin Alpin","postalCode":"73120","city":"Courchevel 1850","picture":"https://restaurant.michelin.fr/sites/mtpb2c_fr/files/styles/poi_detail_landscape/public/HjQVGAeeRveT337g.jpg?itok=AEBLLYzn"}
{"name":"Les Pyrénées","stars":1,"street":"19 pl. Ch.-de-Gaulle","postalCode":"64220","city":"Saint-Jean-Pied-de-Port","picture":"https://restaurant.michelin.fr/sites/mtpb2c_fr/files/styles/poi_detail_landscape/public/12858_1_1.jpg?itok=tqLeAIEL"}
{"name":"La Table de Manville","stars":1,"street":"Domaine de Manville - D27","postalCode":"13520","city":"LES-BAUX-DE-PROVENCE","picture":"https://restaurant.michelin.fr/sites/mtpb2c_fr/files/styles/poi_detail_landscape/public/La%20Table%20photo%20principale.jpg?itok=pNE_hvVx"}
{"name":"Le Vieux Logis","stars":1,"street":"Le Bourg","postalCode":"24510","city":"Trémolat","picture":"https://restaurant.michelin.fr/sites/mtpb2c_fr/files/styles/poi_detail_landscape/public/IkTHGBKc28Zjk_MA.jpg?itok=_wmeqAx3"}
{"name":"Le Refuge des Gourmets","stars":1,"street":"90 route des Framboises","postalCode":"74140","city":"Machilly","picture":"https://restaurant.michelin.fr/sites/mtpb2c_fr/files/styles/poi_detail_landscape/public/dessert%20menu%20framboise%202017.jpg?itok=J0rxlA7V"}
{"name":"Château de la Treyne","stars":1,"street":"","postalCode":"46200","city":"Lacave","picture":"https://restaurant.michelin.fr/sites/mtpb2c_fr/files/styles/poi_detail_landscape/public/FvQTy1aO3MtUg-GQ.jpg?itok=maA_E7nD"}
{"name":"La Palmeraie","stars":1,"street":"81 Boulevard de Gigaro","postalCode":"83420","city":"La Croix-Valmer","picture":"https://restaurant.michelin.fr/sites/mtpb2c_fr/files/styles/poi_detail_landscape/public/65TzCyHi4b6MWc6Q.jpg?itok=khqRb93_"}
{"name":"Cyril Attrazic","stars":1,"street":"10 rte du Languedoc","postalCode":"48130","city":"Aumont-Aubrac","picture":"https://restaurant.michelin.fr/sites/mtpb2c_fr/files/styles/poi_detail_landscape/public/Cyril%20Attrazic%20phoca_thumb_l_chezcamillou-045.jpg?itok=NaQ6ReCY"}
{"name":"JAN","stars":1,"street":"12 Rue Lascaris","postalCode":"06000","city":"Nice","picture":"https://restaurant.michelin.fr/sites/mtpb2c_fr/files/styles/poi_detail_landscape/public/mNQ22vPyWerukpng.jpg?itok=MHTAjczg"}
{"name":"Le Corot","stars":1,"street":"55 Rue de Versailles","postalCode":"92410","city":"VILLE-D'AVRAY","picture":"https://restaurant.michelin.fr/sites/mtpb2c_fr/files/styles/poi_detail_landscape/public/zqSGegIK6y9y143g.jpg?itok=ydcXNvkb"}
{"name":"Fontevraud Le Restaurant","stars":1,"street":"38 rue St-Jean-de-l'Habit","postalCode":"49590","city":"FONTEVRAUD-L'ABBAYE","picture":"https://restaurant.michelin.fr/sites/mtpb2c_fr/files/styles/poi_detail_landscape/public/Fontevraud%20Le%20Restaurant.jpg?itok=ApCpbqfb"}
{"name":"La Maison dans le Parc","stars":1,"street":"3 r. Ste-Catherine","postalCode":"54000","city":"Nancy","picture":"https://restaurant.michelin.fr/sites/mtpb2c_fr/files/styles/poi_detail_landscape/public/03QZuSCeQZCXYpAkfik3dg.jpg?itok=pQ4b0P_f"}
{"name":"Gavroche","stars":1,"street":"4 r. Klein","postalCode":"67000","city":"Strasbourg","picture":"https://restaurant.michelin.fr/sites/mtpb2c_fr/files/styles/poi_detail_landscape/public/8730_1_1.jpg?itok=YCnF0gXK"}
{"name":"Alan Geaam","stars":1,"street":"19 Rue Lauriston","postalCode":"75016","city":"Paris","picture":"https://restaurant.michelin.fr/sites/mtpb2c_fr/files/styles/poi_detail_landscape/public/Restaurant%20Alan%20Geaam-paris1.jpg?itok=DPsRlSCp"}
{"name":"Le Pré - Xavier Beaudiment","stars":2,"street":"3 Route de la Baraque","postalCode":"63830","city":"Durtol","picture":"https://restaurant.michelin.fr/sites/mtpb2c_fr/files/styles/poi_detail_landscape/public/wOQIGNZ3Ct2jR-Og.jpg?itok=cPd3vNzt"}
{"name":"Auberge Grand'Maison","stars":1,"street":"1 r. Léon-le-Cerf","postalCode":"22530","city":"Mûr-de-Bretagne","picture":"https://restaurant.michelin.fr/sites/mtpb2c_fr/files/styles/poi_detail_landscape/public/EjQMmNUuUibHX4VQ.jpg?itok=WQLroLiI"}
{"name":"Copenhague","stars":1,"street":"142 AVENUE DES CHAMPS ELYSEES","postalCode":"75008","city":"PARIS","picture":"https://restaurant.michelin.fr/sites/mtpb2c_fr/files/styles/poi_detail_landscape/public/Copenhague%203.jpg?itok=S0kiMlW7"}
{"name":"Épicure","stars":3,"street":"112 r. Fg St-Honoré","postalCode":"75008","city":"Paris 08","picture":"https://restaurant.michelin.fr/sites/mtpb2c_fr/files/styles/poi_detail_landscape/public/GISKO0FGRwvOH4RQ.jpg?itok=K61zYSgI"}
{"name":"Les Trois Soleils de Montal","stars":1,"street":"St-Jean-Lespinasse","postalCode":"46400","city":"Saint-Céré","picture":"https://restaurant.michelin.fr/sites/mtpb2c_fr/files/styles/poi_detail_landscape/public/Les%20Trois%20Soleils%20de%20Montal3.jpg?itok=WkUaaJeu"}
{"name":"Ken Kawasaki","stars":1,"street":"15 r. Caulaincourt","postalCode":"75018","city":"Paris"}
{"name":"Le Skiff Club","stars":1,"street":"1 av. Louis-Gaume","postalCode":"33260","city":"La Teste-de-Buch"}
{"name":"Akrame","stars":1,"street":"7 r. Tronchet","postalCode":"75008","city":"Paris"}
{"name":"Divellec","stars":1,"street":"18 r. Fabert","postalCode":"75007","city":"Paris"}
{"name":"Le Grand Cap","stars":1,"street":"chemin du Phare","postalCode":"11370","city":"Leucate"}
{"name":"Montée","stars":1,"street":"9 r. Léopold-Robert","postalCode":"75014","city":"Paris"}
{"name":"Jérôme Feck","stars":1,"street":"19 pl. Mgr-Tissier","postalCode":"51000","city":"Châlons-en-Champagne","picture":"https://restaurant.michelin.fr/sites/mtpb2c_fr/files/styles/poi_detail_landscape/public/1871_4_1.jpg?itok=2qeKuV9z"}
{"name":"Sushi B","stars":1,"street":"5 r. Rameau","postalCode":"75002","city":"Paris"}
{"name":"Pierre Reboul","stars":1,"street":"260 r. Guillaume-du-Vair","postalCode":"13546","city":"Aix-en-Provence"}
{"name":"L'Auberge de Bagatelle","stars":1,"street":"489 av. Bollée","postalCode":"72000","city":"Le Mans"}
{"name":"Jean Chauvel","stars":1,"street":"33 av. Général-Leclerc","postalCode":"92100","city":"Boulogne-Billancourt"}
{"name":"Ima","stars":1,"street":"20 bd de la Tour-d'Auvergne","postalCode":"35000","city":"Rennes"}
{"name":"La Merise","stars":1,"street":"7 r. d'Eschbach","postalCode":"67580","city":"Laubach"}
{"name":"La Table de la Ferme","stars":1,"street":"Vallée de l'Ortolo","postalCode":"20100","city":"Sartène"}
{"name":"La Table d'Hôtes - Le Quatrième Mur","stars":1,"street":"2 pl. de la Comédie","postalCode":"33000","city":"Bordeaux"}
{"name":"Restaurant H","stars":1,"street":"13 r. Jean-Beausire","postalCode":"75004","city":"Paris"}
{"name":"Comice","stars":1,"street":"31 av. de Versailles","postalCode":"75016","city":"Paris"}
{"name":"Jean Sulpice","stars":2,"street":"303 rte du Port","postalCode":"74290","city":"Talloires","picture":"https://restaurant.michelin.fr/sites/mtpb2c_fr/files/styles/poi_detail_landscape/public/13212_1_0.jpg?itok=ayOrYYkq"}
{"name":"Lou Cigalon-Maison Martin","stars":1,"street":"6 bd Carnot","postalCode":"06560","city":"Valbonne"}
{"name":"Assa","stars":1,"street":"189 Quai Ulysse Besnard","postalCode":"41000","city":"Blois","picture":"https://restaurant.michelin.fr/sites/mtpb2c_fr/files/styles/poi_detail_landscape/public/ixSeSgqo29r79SQg.jpg?itok=wr5g3lre"}
{"name":"La Promenade","stars":1,"street":"11 rue du Savoureulx","postalCode":"37350","city":"Le Petit-Pressigny","picture":"https://restaurant.michelin.fr/sites/mtpb2c_fr/files/styles/poi_detail_landscape/public/uqTRKrdIHGPtZDjw.jpg?itok=yoeMuSKQ"}
{"name":"La Roya","stars":1,"street":"plage de la Roya","postalCode":"20217","city":"Saint-Florent","picture":"https://restaurant.michelin.fr/sites/mtpb2c_fr/files/styles/poi_detail_landscape/public/HOTwiNA01z-2oOaw.jpg?itok=8UXalArU"}
{"name":"Les Voiles d'Or","stars":1,"street":"2 chemin de la Falaise","postalCode":"76200","city":"Dieppe","picture":"https://restaurant.michelin.fr/sites/mtpb2c_fr/files/styles/poi_detail_landscape/public/1MTgikyDYVUyvD6A.jpg?itok=LS6O82zm"}
{"name":"Logis de la Cadène","stars":1,"street":"Place du Marche au Bois","postalCode":"33330","city":"Saint Emilion","picture":"https://restaurant.michelin.fr/sites/mtpb2c_fr/files/styles/poi_detail_landscape/public/8iQLKotc0UTas3Wg.jpg?itok=F-cK0Aq-"}
{"name":"Il Cortile","stars":1,"street":"11 r. des Franciscains","postalCode":"68100","city":"Mulhouse","picture":"https://restaurant.michelin.fr/sites/mtpb2c_fr/files/styles/poi_detail_landscape/public/MgQtOESAyU2Uj3dg.jpg?itok=R0GJRdjC"}
{"name":"Likoké","stars":1,"street":"7 rte de Païolive","postalCode":"07140","city":"Les Vans","picture":"https://restaurant.michelin.fr/sites/mtpb2c_fr/files/styles/poi_detail_landscape/public/M4R7q1GAeXxLDBLQ.jpg?itok=h4keBjPe"}
{"name":"Atmosphères","stars":1,"street":"618 Route des Tournelles","postalCode":"73370","city":"Le Bourget-du-Lac","picture":"https://restaurant.michelin.fr/sites/mtpb2c_fr/files/styles/poi_detail_landscape/public/HlTySXx8oaCpHd_g.jpg?itok=WlPDL8BM"}
{"name":"Qui plume la Lune","stars":1,"street":"50 r. Amelot","postalCode":"75011","city":"Paris 11","picture":"https://restaurant.michelin.fr/sites/mtpb2c_fr/files/styles/poi_detail_landscape/public/4TTyK98Sc_FiDXng.jpg?itok=TjqR4Jlp"}
{"name":"La Ville Blanche","stars":1,"street":"La Ville Blanche","postalCode":"22300","city":"Rospez","picture":"https://restaurant.michelin.fr/sites/mtpb2c_fr/files/styles/poi_detail_landscape/public/4026_3_0.jpg?itok=C90Deo1G"}
{"name":"La Grange de Belle-Église","stars":1,"street":"28 bd René-Aimé-Lagabrielle","postalCode":"60540","city":"Belle-Église","picture":"https://restaurant.michelin.fr/sites/mtpb2c_fr/files/styles/poi_detail_landscape/public/jWTVu4r2Xm-5qaHA.jpg?itok=go6zi1tT"}
{"name":"Le Kintessence","stars":2,"street":"Rue des Clarines","postalCode":"73120","city":"Courchevel 1850","picture":"https://restaurant.michelin.fr/sites/mtpb2c_fr/files/styles/poi_detail_landscape/public/eKQama14g7Ro5hPQ.jpg?itok=hxke3abQ"}
{"name":"Jean-Claude Leclerc","stars":1,"street":"12 rue St-Adjutor","postalCode":"63000","city":"Clermont-Ferrand","picture":"https://restaurant.michelin.fr/sites/mtpb2c_fr/files/styles/poi_detail_landscape/public/unRomMj8WP9vhf6Q.jpg?itok=FdyPD_4g"}
{"name":"La Pyramide-Patrick Henriroux","stars":2,"street":"14 Boulevard Fernand Point","postalCode":"38200","city":"Vienne","picture":"https://restaurant.michelin.fr/sites/mtpb2c_fr/files/styles/poi_detail_landscape/public/t9Q5O8zPeQjttYZg.jpg?itok=da5HpZm2"}
{"name":"L'Archeste","stars":1,"street":"79 rue de la Tour","postalCode":"75116","city":"Paris","picture":"https://restaurant.michelin.fr/sites/mtpb2c_fr/files/styles/poi_detail_landscape/public/Image%201.jpg?itok=eqHjfPZV"}
{"name":"Gordon Ramsay au Trianon","stars":1,"street":"1 bd de la Reine","postalCode":"78000","city":"Versailles","picture":"https://restaurant.michelin.fr/sites/mtpb2c_fr/files/styles/poi_detail_landscape/public/IeQ6GxfzwX2hypaw.jpg?itok=hPYVDkSN"}
{"name":"1741","stars":1,"street":"22 Quai des Bateliers","postalCode":"67000","city":"Strasbourg","picture":"https://restaurant.michelin.fr/sites/mtpb2c_fr/files/styles/poi_detail_landscape/public/Plat-006.jpg?itok=_BmU20XN"}
{"name":"Le Grand Véfour","stars":2,"street":"17 rue de Beaujolais","postalCode":"75001","city":"Paris","picture":"https://restaurant.michelin.fr/sites/mtpb2c_fr/files/styles/poi_detail_landscape/public/Salle%20de%20restaurant%20-%20Le%20Grand%20V%2B%C2%AEfour%20-%C2%AEJ%2B%C2%AEr%2B%C2%A6me%20Mondi%2B%C2%BFre%20%285%29.jpg?itok=q62NaUhp"}
{"name":"Thierry Drapeau","stars":2,"street":"La Chabotterie","postalCode":"85260","city":"Saint-Sulpice-le-Verdon","picture":"https://restaurant.michelin.fr/sites/mtpb2c_fr/files/styles/poi_detail_landscape/public/RfR2a5_nk1u-j0OA.jpg?itok=Y2o_ldnJ"}
{"name":"L'Amphitryon","stars":1,"street":"chemin de Gramont","postalCode":"31770","city":"Colomiers","picture":"https://restaurant.michelin.fr/sites/mtpb2c_fr/files/styles/poi_detail_landscape/public/oATL-_idP-NXEAnQ.jpg?itok=F91LEyZA"}
{"name":"Arpège","stars":3,"street":"84 Rue de Varenne","postalCode":"75007","city":"Paris","picture":"https://restaurant.michelin.fr/sites/mtpb2c_fr/files/styles/poi_detail_landscape/public/saint%20jacques%20place%20Vendome%20%C2%A9DosSantosLemone.jpg?itok=Vxh4rDYz"}
{"name":"Toya","stars":1,"street":"av. Jean-Monnet","postalCode":"57380","city":"Faulquemont","picture":"https://restaurant.michelin.fr/sites/mtpb2c_fr/files/styles/poi_detail_landscape/public/325678_2_0.jpg?itok=oyurnyJ_"}
{"name":"Le Farçon","stars":1,"street":"immeuble la Kalinka","postalCode":"73125","city":"La Tania","picture":"https://restaurant.michelin.fr/sites/mtpb2c_fr/files/styles/poi_detail_landscape/public/onRyuqxYyOETOIGw.jpg?itok=iGHH7Rgu"}
{"name":"L'Atelier Yssoirien","stars":1,"street":"39 Boulevard Triozon-Bayle","postalCode":"63500","city":"Issoire","picture":"https://restaurant.michelin.fr/sites/mtpb2c_fr/files/styles/poi_logo_landscape/public/JERjCIUoKfB55sPQ.jpg?itok=QU3K1PSR"}
{"name":"Les Bories","stars":1,"street":"rte de l'Abbaye de Sénanque","postalCode":"84220","city":"Gordes","picture":"https://restaurant.michelin.fr/sites/mtpb2c_fr/files/styles/poi_detail_landscape/public/_6S2Oa611dcUyx1A.jpg?itok=6HJSpzpW"}
{"name":"Buerehiesel","stars":1,"street":"dans le parc de l'Orangerie","postalCode":"67000","city":"Strasbourg","picture":"https://restaurant.michelin.fr/sites/mtpb2c_fr/files/styles/poi_detail_landscape/public/Buerehiesel-jardin%20d%27hiver%201.jpg?itok=aQ14Ke2M"}
{"name":"Serge Vieira","stars":2,"street":"Château du Couffour","postalCode":"15110","city":"Chaudes-Aigues","picture":"https://restaurant.michelin.fr/sites/mtpb2c_fr/files/styles/poi_detail_landscape/public/258222_1_1.jpg?itok=OXiWIbRp"}
{"name":"La Galinette","stars":1,"street":"23 r. Jean Payra","postalCode":"66000","city":"Perpignan","picture":"https://restaurant.michelin.fr/sites/mtpb2c_fr/files/styles/poi_detail_landscape/public/4-R0q5x8ChfBJZfw.jpg?itok=LNBPUgYF"}
{"name":"La Balette","stars":1,"street":"rte de Port-Vendres","postalCode":"66190","city":"Collioure","picture":"https://restaurant.michelin.fr/sites/mtpb2c_fr/files/styles/poi_detail_landscape/public/18-_DSC0034.JPG?itok=mzR4tEwJ"}
{"name":"Le 7ème Continent","stars":1,"street":"35 av. Gén. -de-Gaulle","postalCode":"68170","city":"Rixheim","picture":"https://restaurant.michelin.fr/sites/mtpb2c_fr/files/styles/poi_detail_landscape/public/1-LE-7-EME-CONTINENT-RESTAURANT-ALSACE-CREDIT-MARS-ROUGE%20%281%29.JPG?itok=zHci-k4M"}
{"name":"Maison Christian Étienne","stars":1,"street":"10 Rue de Mons","postalCode":"84000","city":"Avignon","picture":"https://restaurant.michelin.fr/sites/mtpb2c_fr/files/styles/poi_detail_landscape/public/Ext%C3%A9rieur%20Maison%20Christian%20Etienne.jpg?itok=YyY27FEa"}
{"name":"Prairial","stars":1,"street":"11 Rue Chavanne","postalCode":"69001","city":"Lyon","picture":"https://restaurant.michelin.fr/sites/mtpb2c_fr/files/styles/poi_detail_landscape/public/prairial%20mai%202017-17.jpg?itok=NQ8RkhTX"}
{"name":"L'Impertinent","stars":1,"street":"5, rue d'Alsace","postalCode":"64200","city":"Biarritz","picture":"https://restaurant.michelin.fr/sites/mtpb2c_fr/files/styles/poi_detail_landscape/public/6mQO6q9-bwxNBgXw.jpg?itok=NZVMZj-0"}
{"name":"La Chassagnette","stars":1,"street":"route du Sambuc","postalCode":"13200","city":"ARLES","picture":"https://restaurant.michelin.fr/sites/mtpb2c_fr/files/styles/poi_detail_landscape/public/La%20Chassagnette3.jpg?itok=jQgtnKtR"}
{"name":"Auberge de la Brie","stars":1,"street":"14 av. Alphonse Boulingre","postalCode":"77860","city":"Couilly-Pont-aux-Dames","picture":"https://restaurant.michelin.fr/sites/mtpb2c_fr/files/styles/poi_detail_landscape/public/2605_1_1.jpg?itok=awtMm-cA"}
{"name":"Le Vivier","stars":1,"street":"800 cours F. Peyre (rte de Carpentras)","postalCode":"84800","city":"L'Isle-sur-la-Sorgue","picture":"https://restaurant.michelin.fr/sites/mtpb2c_fr/files/styles/poi_detail_landscape/public/Le_Vivier_08-16_BD_%C2%A9EGentils-8%5B1%5D.jpg?itok=jdyT3E1u"}
{"name":"Quai des Saveurs","stars":1,"street":"69 rue de la Gare","postalCode":"57300","city":"Hagondange","picture":"https://restaurant.michelin.fr/sites/mtpb2c_fr/files/styles/poi_detail_landscape/public/Photo%201.JPG?itok=BTwvkxcB"}
{"name":"SEPT","stars":1,"street":"7 pl. St-Sernin","postalCode":"31000","city":"Toulouse","picture":"https://restaurant.michelin.fr/sites/mtpb2c_fr/files/styles/poi_detail_landscape/public/GkQ9KdfAZbE3YbBQ.jpg?itok=vz9wU-Dt"}
{"name":"Le Passe Temps","stars":1,"street":"52 Rue Tronchet","postalCode":"69006","city":"Lyon","picture":"https://restaurant.michelin.fr/sites/mtpb2c_fr/files/styles/poi_detail_landscape/public/IMG_1164-h1024.JPG?itok=c84SpIZ_"}
{"name":"La Renaissance","stars":1,"street":"20 av. 2e-Division-Blindée","postalCode":"61200","city":"Argentan","picture":"https://restaurant.michelin.fr/sites/mtpb2c_fr/files/styles/poi_detail_landscape/public/fdQVyA50khCJXa1g.jpg?itok=oSb8Lwuv"}
{"name":"Château Cordeillan-Bages","stars":1,"street":"Route des châteaux","postalCode":"33250","city":"Pauillac","picture":"https://restaurant.michelin.fr/sites/mtpb2c_fr/files/styles/poi_detail_landscape/public/ASPERGE%20verte%20en%20blanc-manger%20_%20Blanche%20a%20la%20Maltaise%20_%20Julien%20Lefebvre%20_%20CordeillanBages.jpg?itok=ln8O1jzV"}
{"name":"Auberge de Clochemerle","stars":1,"street":"Rue Gabriel-Chevallier","postalCode":"69460","city":"VAUX-EN-BEAUJOLAIS","picture":"https://restaurant.michelin.fr/sites/mtpb2c_fr/files/styles/poi_detail_landscape/public/Clochemerle3.jpg?itok=CrwPaxaO"}
{"name":"Le Figuier de St-Esprit","stars":1,"street":"7, Promenade Amiral de Grasse","postalCode":"06600","city":"Antibes","picture":"https://restaurant.michelin.fr/sites/mtpb2c_fr/files/styles/poi_detail_landscape/public/204250_2_0.jpg?itok=vWs1rDr_"}
{"name":"Armani Ristorante","stars":1,"street":"149 Boulevard Saint-Germain","postalCode":"75006","city":"Paris","picture":"https://restaurant.michelin.fr/sites/mtpb2c_fr/files/styles/poi_detail_landscape/public/Georgio%20Armani%20Caffe2365-min.jpg?itok=pdDF1KwE"}
{"name":"Jérôme Nutile - Le Mas de Boudan","stars":1,"street":"351 Chemin du Mas de Boudan","postalCode":"30000","city":"Nîmes","picture":"https://restaurant.michelin.fr/sites/mtpb2c_fr/files/styles/poi_detail_landscape/public/Terrasse-01_0.jpg?itok=YhTIWO8X"}
{"name":"Le Saison","stars":1,"street":"1 imp. du Vieux-Bourg","postalCode":"35760","city":"Saint-Grégoire","picture":"https://restaurant.michelin.fr/sites/mtpb2c_fr/files/styles/poi_detail_landscape/public/7333_1_0.jpg?itok=-73NFVsN"}
{"name":"Albert 1er","stars":2,"street":"38 rte du Bouchet","postalCode":"74400","city":"Chamonix-Mont-Blanc","picture":"https://restaurant.michelin.fr/sites/mtpb2c_fr/files/styles/poi_detail_landscape/public/Seb%20Montaz%20DSC03903%20%2827%29-min.jpg?itok=4kJ8JuIN"}
{"name":"L'Atelier de Jean-Luc Rabanel","stars":2,"street":"7 r. des Carmes","postalCode":"13200","city":"Arles","picture":"https://restaurant.michelin.fr/sites/mtpb2c_fr/files/styles/poi_detail_landscape/public/RURd6CwtVcGOuZ5Q.jpg?itok=FdNDakdV"}
{"name":"Le Jardin des Plumes","stars":1,"street":"1 Rue du Milieu","postalCode":"27620","city":"Giverny","picture":"https://restaurant.michelin.fr/sites/mtpb2c_fr/files/styles/poi_detail_landscape/public/hMT-22Cv2NJ3lxNw.jpg?itok=4g2ckvmQ"}
{"name":"La Maison d'à Côté","stars":1,"street":"17 rue de Chambord","postalCode":"41350","city":"Montlivault","picture":"https://restaurant.michelin.fr/sites/mtpb2c_fr/files/styles/poi_detail_landscape/public/_J5A2197-2%20-%20Copie-min.jpg?itok=hlWu3NNk"}
{"name":"Lamartine","stars":1,"street":"Route du Tunnel du Chat","postalCode":"73370","city":"Le Bourget du Lac","picture":"https://restaurant.michelin.fr/sites/mtpb2c_fr/files/styles/poi_detail_landscape/public/0LSOGogciZjd9_PA.jpg?itok=SO8EhG49"}
{"name":"Le Petit Hôtel du Grand Large","stars":1,"street":"11 quai St-Ivy","postalCode":"56510","city":"Portivy","picture":"https://restaurant.michelin.fr/sites/mtpb2c_fr/files/styles/poi_detail_landscape/public/XjT2OebxjvalPfvQ.jpg?itok=hivxuo2I"}
{"name":"Le Domaine de la Corniche","stars":1,"street":"5 rte de la Corniche","postalCode":"78270","city":"Rolleboise","picture":"https://restaurant.michelin.fr/sites/mtpb2c_fr/files/styles/poi_detail_landscape/public/12652_1_0.jpg?itok=PxPozzxO"}
{"name":"Le Raisin","stars":1,"street":"2 pl. M. -Poisat","postalCode":"01190","city":"Pont-de-Vaux","picture":"https://restaurant.michelin.fr/sites/mtpb2c_fr/files/styles/poi_detail_landscape/public/7066_3_0.jpg?itok=2yuzqDHL"}
{"name":"Kasbür","stars":1,"street":"8 Rue de Dettwiller","postalCode":"67700","city":"Monswiller","picture":"https://restaurant.michelin.fr/sites/mtpb2c_fr/files/styles/poi_detail_landscape/public/b8Qdu-WMgicEq4xw.jpg?itok=m2Z0t3N3"}
{"name":"Le Clocher des Pères","stars":1,"street":"D213","postalCode":"73130","city":"Saint-Martin-sur-la-Chambre","picture":"https://restaurant.michelin.fr/sites/mtpb2c_fr/files/styles/poi_detail_landscape/public/GWQwG8_dGdBLZFjQ.jpg?itok=qoM_QtVw"}
{"name":"Apicius","stars":1,"street":"Marché Saint Pierre 1 étage","postalCode":"63000","city":"Clermont-Ferrand","picture":"https://restaurant.michelin.fr/sites/mtpb2c_fr/files/styles/poi_detail_landscape/public/2IRxa7D2eRv7v5DA.jpg?itok=qb_zKtyW"}
{"name":"Restaurant des Rois","stars":1,"street":"5 Boulevard du Maréchal Leclerc","postalCode":"06310","city":"Beaulieu-sur-Mer","picture":"https://restaurant.michelin.fr/sites/mtpb2c_fr/files/styles/poi_detail_landscape/public/49TyGqFphvsw031w.jpg?itok=9fatm9nd"}
{"name":"Le Champ des Lunes","stars":1,"street":"route de Roquefraîche","postalCode":"84360","city":"Lauris","picture":"https://restaurant.michelin.fr/sites/mtpb2c_fr/files/styles/poi_detail_landscape/public/Fontenille_010-min.jpg?itok=VBzn34VU"}
{"name":"La Table du 11","stars":1,"street":"8 rue de la chancellerie","postalCode":"78000","city":"Versailles","picture":"https://restaurant.michelin.fr/sites/mtpb2c_fr/files/styles/poi_detail_landscape/public/La%20Table%20du%2011%20-%202.jpg?itok=8casYbQx"}
{"name":"Astrance","stars":3,"street":"4 r. Beethoven","postalCode":"75016","city":"Paris","picture":"https://restaurant.michelin.fr/sites/mtpb2c_fr/files/styles/poi_detail_landscape/public/BeSd65S7vQNNrgAg.jpg?itok=9l4xU_N_"}
{"name":"Baumanière 1850","stars":1,"street":"rte de Bellecôte","postalCode":"73120","city":"Courchevel 1850"}
{"name":"Auberge Le Prieuré","stars":1,"street":"4 Grand'Rue","postalCode":"47310","city":"Moirax"}
{"name":"ES","stars":1,"street":"91 r. de Grenelle","postalCode":"75007","city":"Paris"}
{"name":"Val d'Auge","stars":1,"street":"805 av. du Gén.-de-Gaulle","postalCode":"59910","city":"Bondues"}
{"name":"Au 14 Février","stars":2,"street":"Le Plâtre-Durand","postalCode":"71570","city":"Saint-Amour-Bellevue"}
{"name":"L'Alchémille","stars":1,"street":"53 rte de Lapoutroie","postalCode":"68240","city":"Kaysersberg","picture":"https://restaurant.michelin.fr/sites/mtpb2c_fr/files/styles/poi_detail_landscape/public/hvQ_e5NPXLlawB9Q.jpg?itok=kfVhDMVD"}
{"name":"Transparence \"La Table de Patrick Fréchin\"","stars":1,"street":"28 r. Stanislas","postalCode":"54000","city":"Nancy"}
{"name":"L'Aromate","stars":1,"street":"2 r. Gustave Deloye","postalCode":"06000","city":"Nice"}
{"name":"Château Blanchard","stars":1,"street":"36 rte de St-Galmier","postalCode":"42140","city":"Chazelles-sur-Lyon"}
{"name":"L'Hysope","stars":1,"street":"25 r. de l'Aurore","postalCode":"17220","city":"La Jarrie"}
{"name":"À Contre Sens","stars":1,"street":"8-10 r. des Croisiers","postalCode":"14000","city":"Caen"}
{"name":"L'Atelier de Joël Robuchon - St-Germain","stars":2,"street":"5 r. de Montalembert","postalCode":"75007","city":"Paris","picture":"https://restaurant.michelin.fr/sites/mtpb2c_fr/files/styles/poi_detail_landscape/public/44900_1_0.jpg?itok=c__ROQAh"}
{"name":"Maison Crouzil et Hôtel L'Écrin","stars":1,"street":"20 les Quais","postalCode":"22130","city":"Plancoët"}
{"name":"La Coopérative","stars":1,"street":"2A Route de Caladroy","postalCode":"66720","city":"Bélesta","picture":"https://restaurant.michelin.fr/sites/mtpb2c_fr/files/styles/poi_detail_landscape/public/328019_1_0.jpg?itok=gwV3IzYl"}
{"name":"La Table de Nans","stars":1,"street":"corniche du Liouquet","postalCode":"13600","city":"La Ciotat","picture":"https://restaurant.michelin.fr/sites/mtpb2c_fr/files/styles/poi_detail_landscape/public/znQkWGBXPeBXPpPQ.jpg?itok=e6PqgY-7"}
{"name":"Le Pot d'Étain","stars":1,"street":"4 av. de la République","postalCode":"90400","city":"Danjoutin","picture":"https://restaurant.michelin.fr/sites/mtpb2c_fr/files/styles/poi_detail_landscape/public/kfRUKkvhQCD8BmKQ.jpg?itok=IwN0NILn"}
{"name":"La Bastide de Capelongue","stars":2,"street":"Chemin des Cabanes","postalCode":"84480","city":"Bonnieux","picture":"https://restaurant.michelin.fr/sites/mtpb2c_fr/files/styles/poi_detail_landscape/public/capelongue.jpg?itok=xrDUT9PQ"}
{"name":"Le Sérac","stars":1,"street":"22 r. de la Comtesse","postalCode":"74170","city":"Saint-Gervais-les-Bains"}
{"name":"Le Coquillage","stars":1,"street":"Lieu-dit Le Buot","postalCode":"35350","city":"Saint-Méloir-des-Ondes","picture":"https://restaurant.michelin.fr/sites/mtpb2c_fr/files/styles/poi_detail_landscape/public/iJT-qXRDcz-wXKIw.jpg?itok=Whv18spG"}
{"name":"SaQuaNa","stars":2,"street":"22 pl. Hamelin","postalCode":"14600","city":"Honfleur","picture":"https://restaurant.michelin.fr/sites/mtpb2c_fr/files/styles/poi_detail_landscape/public/0GSqmClM7ZcX0jOg.jpg?itok=X9IGsmCB"}
{"name":"En Pleine Nature","stars":1,"street":"6 pl. de la Mairie","postalCode":"31130","city":"Fonsegrives","picture":"https://restaurant.michelin.fr/sites/mtpb2c_fr/files/styles/poi_detail_landscape/public/DWT6m-I16N4ilNCg.jpg?itok=wDjNMC7W"}
{"name":"La Table du Gourmet","stars":1,"street":"5 rue 1ère Armée","postalCode":"68340","city":"Riquewihr","picture":"https://restaurant.michelin.fr/sites/mtpb2c_fr/files/styles/poi_detail_landscape/public/uCShWwokLpkghVkA.jpg?itok=62IiBZmf"}
{"name":"La Vieille Tour","stars":1,"street":"75 r. de la Tour","postalCode":"22190","city":"Plérin","picture":"https://restaurant.michelin.fr/sites/mtpb2c_fr/files/styles/poi_detail_landscape/public/LOQma6Zwb9h9NwjA.jpg?itok=Ka3yH2L_"}
{"name":"Table - Bruno Verjus","stars":1,"street":"3 r. de Prague","postalCode":"75012","city":"Paris"}
{"name":"Pages","stars":1,"street":"4 r. Auguste-Vacquerie","postalCode":"75016","city":"Paris","picture":"https://restaurant.michelin.fr/sites/mtpb2c_fr/files/styles/poi_detail_landscape/public/OHTeyjLlB_XlPs2g.jpg?itok=CbWlMz7a"}
{"name":"Auberge des Templiers","stars":1,"street":"D2007","postalCode":"45290","city":"Les Bézards","picture":"https://restaurant.michelin.fr/sites/mtpb2c_fr/files/styles/poi_detail_landscape/public/Auberge%20des%20templiers.jpg?itok=j-SfGH2a"}
{"name":"Le Gourmet de Sèze","stars":1,"street":"125 Rue de Sèze","postalCode":"69006","city":"Lyon","picture":"https://restaurant.michelin.fr/sites/mtpb2c_fr/files/styles/poi_detail_landscape/public/Gourmet%20de%20Seze.jpg?itok=jjlPva_l"}
{"name":"La Table de l'Alpaga","stars":1,"street":"66 Allée des Marmousets","postalCode":"74120","city":"Megève","picture":"https://restaurant.michelin.fr/sites/mtpb2c_fr/files/styles/poi_detail_landscape/public/AM2A6561.jpg?itok=YIzro83M"}
{"name":"L'Océan","stars":1,"street":"43 bd Thiers","postalCode":"64500","city":"Saint-Jean-de-Luz"}
{"name":"La Petite Maison de Cucuron","stars":1,"street":"pl. de l'Étang","postalCode":"84160","city":"Cucuron","picture":"https://restaurant.michelin.fr/sites/mtpb2c_fr/files/styles/poi_detail_landscape/public/2728_1_1.jpg?itok=uDOTw3_j"}
{"name":"La Promenade","stars":1,"street":"2 promenade Jean-Jaurès","postalCode":"31590","city":"Verfeil","picture":"https://restaurant.michelin.fr/sites/mtpb2c_fr/files/styles/poi_detail_landscape/public/ypSGCtiCYnOWs6eA.jpg?itok=OHpePX-c"}
{"name":"La Chèvre d'Or","stars":2,"street":"r. du Barri","postalCode":"06360","city":"Èze","picture":"https://restaurant.michelin.fr/sites/mtpb2c_fr/files/styles/poi_detail_landscape/public/Chevre%20d%27or%203.jpg?itok=jg1l8fnZ"}
{"name":"Mariottat","stars":1,"street":"25 r. L.-Vivent","postalCode":"47000","city":"Agen","picture":"https://restaurant.michelin.fr/sites/mtpb2c_fr/files/styles/poi_detail_landscape/public/36_1_1.jpg?itok=XiR3gUwO"}
{"name":"Le Clarence","stars":2,"street":"31 Avenue Franklin Delano Roosevelt","postalCode":"75008","city":"Paris 08","picture":"https://restaurant.michelin.fr/sites/mtpb2c_fr/files/styles/poi_detail_landscape/public/16640588_1437410429610518_3495360118479252504_n.jpg?itok=wsQ4mxor"}
{"name":"Roscanvec","stars":1,"street":"17 r. des Halles","postalCode":"56000","city":"Vannes","picture":"https://restaurant.michelin.fr/sites/mtpb2c_fr/files/styles/poi_detail_landscape/public/9345_1_1.jpg?itok=SvgsuvyE"}
{"name":"Château de Codignat","stars":1,"street":"Bort l'Etang","postalCode":"63190","city":"Bort-l'Étang","picture":"https://restaurant.michelin.fr/sites/mtpb2c_fr/files/styles/poi_detail_landscape/public/Chateau%20de%20Codignat%20%281%29.jpg?itok=r1Ur_I8m"}
{"name":"Le Saint-Martin","stars":1,"street":"Avenue des Templiers","postalCode":"06140","city":"Vence","picture":"https://restaurant.michelin.fr/sites/mtpb2c_fr/files/styles/poi_detail_landscape/public/03%20TERRASSE%20RESTO%20JOUR%2001%20CADRAGE%202.jpg?itok=cqeZnA_K"}
{"name":"Raphaël Vionnet","stars":1,"street":"43 Avenue du Général Leclerc","postalCode":"74200","city":"Thonon-les-Bains","picture":"https://restaurant.michelin.fr/sites/mtpb2c_fr/files/styles/poi_detail_landscape/public/UaQyy2i7-lj3I0sQ.jpg?itok=Y00UTdtA"}
{"name":"Haut Bonheur de la Table","stars":1,"street":"18 Grand-Place","postalCode":"59670","city":"Cassel","picture":"https://restaurant.michelin.fr/sites/mtpb2c_fr/files/styles/poi_detail_landscape/public/d0QuSALPKynP9VOw.jpg?itok=n_oiNqRH"}
{"name":"Clovis","stars":1,"street":"21 Grand-Rue","postalCode":"06140","city":"Tourrettes-sur-Loup"}
{"name":"Les Genêts","stars":1,"street":"21 bis Rue de l'Océan","postalCode":"85470","city":"Brem-sur-Mer","picture":"https://restaurant.michelin.fr/sites/mtpb2c_fr/files/styles/poi_detail_landscape/public/1973581_848438961837863_3338732108336173708_o.jpg?itok=RyfG03Lu"}
{"name":"Ivan Vautier","stars":1,"street":"3 avenue Henry-Chéron","postalCode":"14000","city":"Caen","picture":"https://restaurant.michelin.fr/sites/mtpb2c_fr/files/styles/poi_detail_landscape/public/vNTZO1E7S68plxVw.jpg?itok=79HMZ8td"}
{"name":"L'Atelier d'Edmond","stars":2,"street":"au Fornet","postalCode":"73150","city":"Val-d'Isère","picture":"https://restaurant.michelin.fr/sites/mtpb2c_fr/files/styles/poi_detail_landscape/public/A_E_exte%C2%A6%C3%BCrieur11322%20-%20Copie.jpg?itok=L03xyuTq"}
{"name":"Le Mas du Langoustier","stars":1,"street":"","postalCode":"83400","city":"Hyères","picture":"https://restaurant.michelin.fr/sites/mtpb2c_fr/files/styles/poi_detail_landscape/public/11412_1_1.jpg?itok=vvRVmbvG"}
{"name":"114, Faubourg","stars":1,"street":"114 r. Fg St-Honoré","postalCode":"75008","city":"Paris 08","picture":"https://restaurant.michelin.fr/sites/mtpb2c_fr/files/styles/poi_detail_landscape/public/WFRESxgroopcBBVw.jpg?itok=SSMdyfO0"}
{"name":"Ô Flaveurs","stars":1,"street":"Château de Chilly","postalCode":"74140","city":"Douvaine","picture":"https://restaurant.michelin.fr/sites/mtpb2c_fr/files/styles/poi_detail_landscape/public/HeQ5K7Y_j2JvNdxw.jpg?itok=nZlsLjg-"}
{"name":"Le Lido","stars":1,"street":"42 av. Napoléon-III","postalCode":"20110","city":"Propriano","picture":"https://restaurant.michelin.fr/sites/mtpb2c_fr/files/styles/poi_detail_landscape/public/OjQlOFWdtmX9R4WQ.jpg?itok=immMNeam"}
{"name":"La Table des Blot - Auberge du Château","stars":1,"street":"1 Grande-Rue","postalCode":"78720","city":"Dampierre-en-Yvelines"}
{"name":"L'Éveil des Sens","stars":1,"street":"429 bd Paul-Lintier","postalCode":"53100","city":"Mayenne","picture":"https://restaurant.michelin.fr/sites/mtpb2c_fr/files/styles/poi_detail_landscape/public/0kSrWV0TvTJRmv7w.jpg?itok=-8QCa11q"}
{"name":"La Lorraine","stars":1,"street":"80 rue Principale","postalCode":"57330","city":"Zoufftgen","picture":"https://restaurant.michelin.fr/sites/mtpb2c_fr/files/styles/poi_detail_landscape/public/2017-02-07%2010.25.23.png?itok=m7sVLkc_"}
{"name":"Le Bistro des Saveurs","stars":1,"street":"35 Rue de Sélestat","postalCode":"67210","city":"Obernai","picture":"https://restaurant.michelin.fr/sites/mtpb2c_fr/files/styles/poi_detail_landscape/public/HiTmWmjV7PREAaCQ.jpg?itok=zS6izOwL"}
{"name":"Le Pêché Gourmand","stars":1,"street":"2 rte de Gap","postalCode":"05100","city":"Briançon","picture":"https://restaurant.michelin.fr/sites/mtpb2c_fr/files/styles/poi_detail_landscape/public/pyRcC_24MamPZf9g.jpg?itok=kO8u_3ed"}
{"name":"Le Moulin des Quatre Saisons","stars":1,"street":"r. Gallieni","postalCode":"72200","city":"La Flèche","picture":"https://restaurant.michelin.fr/sites/mtpb2c_fr/files/styles/poi_detail_landscape/public/3197_1_1.jpg?itok=vPIrKZWc"}
{"name":"La Robe","stars":1,"street":"3 pl. Reveillère-Lepeaux","postalCode":"85600","city":"Montaigu","picture":"https://restaurant.michelin.fr/sites/mtpb2c_fr/files/styles/poi_detail_landscape/public/YEQHqbSXw1WmLt0Q.jpg?itok=VFGgofb5"}
{"name":"Le St-Martin","stars":1,"street":"1 r. du Gén.-Leclerc","postalCode":"25200","city":"Montbéliard","picture":"https://restaurant.michelin.fr/sites/mtpb2c_fr/files/styles/poi_detail_landscape/public/zPRTOZNQxxcyI1uw.jpg?itok=761P0pCe"}
{"name":"Yoann Conte","stars":2,"street":"13 Vieille-Route-des-Pensières","postalCode":"74290","city":"Veyrier-du-Lac","picture":"https://restaurant.michelin.fr/sites/mtpb2c_fr/files/styles/poi_detail_landscape/public/qoSHmlHUyc1QOA4g.jpg?itok=49ApTZq9"}
{"name":"Avel Vor","stars":1,"street":"25 r. de Locmalo","postalCode":"56290","city":"Port-Louis","picture":"https://restaurant.michelin.fr/sites/mtpb2c_fr/files/styles/poi_detail_landscape/public/cGQuK6CHW4PWSKEw.jpg?itok=nRSGxq5M"}
{"name":"La Fourchette du Printemps","stars":1,"street":"30 r. du Printemps","postalCode":"75017","city":"Paris","picture":"https://restaurant.michelin.fr/sites/mtpb2c_fr/files/styles/poi_detail_landscape/public/rIQMW70WylTJR3HQ.jpg?itok=6WrqAgCM"}
{"name":"Terre-Mer","stars":1,"street":"16 r. du Jeu-de-Paume","postalCode":"56400","city":"Auray","picture":"https://restaurant.michelin.fr/sites/mtpb2c_fr/files/styles/poi_detail_landscape/public/q5SYKNAJ5Cf6d7Zg.jpg?itok=zoX2ZA31"}
{"name":"Les Chênes Verts","stars":1,"street":"rte de Villecroze","postalCode":"83690","city":"Tourtour","picture":"https://restaurant.michelin.fr/sites/mtpb2c_fr/files/styles/poi_detail_landscape/public/utQ2uN4sjL7U2G7w.jpg?itok=hRX4LhrR"}
{"name":"La Tour","stars":1,"street":"31 Nouvelle-Place","postalCode":"18300","city":"Sancerre","picture":"https://restaurant.michelin.fr/sites/mtpb2c_fr/files/styles/poi_detail_landscape/public/wITb6mKhE0_e2uYg.jpg?itok=5_H_hSaB"}
{"name":"Maximilien","stars":1,"street":"19a rte Ostheim","postalCode":"68340","city":"Zellenberg","picture":"https://restaurant.michelin.fr/sites/mtpb2c_fr/files/styles/poi_detail_landscape/public/MoLH5h_WSmuW96xATHeeSw.jpg?itok=_7ZEEnhI"}
{"name":"Skab","stars":1,"street":"7 Rue de la République","postalCode":"30000","city":"nimes","picture":"https://restaurant.michelin.fr/sites/mtpb2c_fr/files/styles/poi_detail_landscape/public/5_125.jpg?itok=xNnLGfoa"}
{"name":"Umami","stars":1,"street":"8 r. des Dentelles","postalCode":"67000","city":"Strasbourg"}
{"name":"Les Loges","stars":1,"street":"6 r. du Boeuf","postalCode":"69005","city":"Lyon 05","picture":"https://restaurant.michelin.fr/sites/mtpb2c_fr/files/styles/poi_detail_landscape/public/4_160.jpg?itok=Bc4D8L8d"}
{"name":"La Marine","stars":2,"street":"3 r. Marie-Lemonnier","postalCode":"85330","city":"L'Herbaudière","picture":"https://restaurant.michelin.fr/sites/mtpb2c_fr/files/styles/poi_detail_landscape/public/RVQsqDDuGxYrDjuA.jpg?itok=2XYS2q3R"}
{"name":"Auberge St-Walfrid","stars":1,"street":"58 r. de Grosbliederstroff","postalCode":"57200","city":"Sarreguemines","picture":"https://restaurant.michelin.fr/sites/mtpb2c_fr/files/styles/poi_detail_landscape/public/8472_1_0.jpg?itok=HjTpaLkR"}
{"name":"Auberge du Pont d'Acigné","stars":1,"street":"D392","postalCode":"35530","city":"Noyal-sur-Vilaine","picture":"https://restaurant.michelin.fr/sites/mtpb2c_fr/files/styles/poi_detail_landscape/public/u4TKW-TMFayBwihA.jpg?itok=yLPdb6Mr"}
{"name":"Auberge de la Charme","stars":1,"street":"12 r. de la Charme","postalCode":"21370","city":"Prenois","picture":"https://restaurant.michelin.fr/sites/mtpb2c_fr/files/styles/poi_detail_landscape/public/1609_Reportage_Charme77-min.jpg?itok=841rXTx1"}
{"name":"Jin","stars":1,"street":"6 Rue de la Sourdière","postalCode":"75001","city":"Paris","picture":"https://restaurant.michelin.fr/sites/mtpb2c_fr/files/styles/poi_detail_landscape/public/JINcomptoir1-min.jpg?itok=tcSQc8NK"}
{"name":"Maison Prévôt","stars":1,"street":"353 av. de Verdun","postalCode":"84300","city":"Cavaillon","picture":"https://restaurant.michelin.fr/sites/mtpb2c_fr/files/styles/poi_detail_landscape/public/1819_1_0.jpg?itok=isU9kc86"}
{"name":"L'Aquarelle","stars":1,"street":"71 A rte du Montil","postalCode":"17920","city":"Breuillet","picture":"https://restaurant.michelin.fr/sites/mtpb2c_fr/files/styles/poi_detail_landscape/public/sYQ_-4YEzmU8Vmbw.jpg?itok=1szC_1XL"}
{"name":"Allium","stars":1,"street":"88 bd de Créac'h-Gwen","postalCode":"29000","city":"Quimper","picture":"https://restaurant.michelin.fr/sites/mtpb2c_fr/files/styles/poi_detail_landscape/public/BBQLqfMySR8dVIrg.jpg?itok=oaEvbBH6"}
{"name":"Azimut","stars":1,"street":"273 r. de la Madelon","postalCode":"73120","city":"Courchevel-Saint-Bon","picture":"https://restaurant.michelin.fr/sites/mtpb2c_fr/files/styles/poi_detail_landscape/public/207116_1_0.jpg?itok=-1UEXPRM"}
{"name":"Ze Kitchen Galerie","stars":1,"street":"4 r. des Grands-Augustins","postalCode":"75006","city":"Paris","picture":"https://restaurant.michelin.fr/sites/mtpb2c_fr/files/styles/poi_detail_landscape/public/5954_1_1.jpg?itok=1ZVtuaQA"}
{"name":"Étude","stars":1,"street":"14 r. Bouquet-de-Longchamp","postalCode":"75016","city":"Paris"}
{"name":"La Marine","stars":1,"street":"11 r. de Paris","postalCode":"50270","city":"Barneville-Carteret","picture":"https://restaurant.michelin.fr/sites/mtpb2c_fr/files/styles/poi_detail_landscape/public/kNQ4KUHF7VyExbeA.jpg?itok=y33WJb73"}
{"name":"Relais de la Poste","stars":1,"street":"21 rue du Gén. -de-Gaulle","postalCode":"67610","city":"LA-WANTZENAU","picture":"https://restaurant.michelin.fr/sites/mtpb2c_fr/files/styles/poi_detail_landscape/public/Saint%20Pierre%20homard%20Breton.jpg?itok=5kWwpti7"}
{"name":"La Table de Patrick Raingeard","stars":1,"street":"1312 av. Raymond-Poincaré","postalCode":"06360","city":"EZE-BORD-DE-MER","picture":"https://restaurant.michelin.fr/sites/mtpb2c_fr/files/styles/poi_detail_landscape/public/FQT2KycwGGub9cgw.jpg?itok=fiOZlAJo"}
{"name":"Au Crocodile","stars":1,"street":"10 rue de L'Outre","postalCode":"67000","city":"STRASBOURG","picture":"https://restaurant.michelin.fr/sites/mtpb2c_fr/files/styles/poi_detail_landscape/public/Au%20crocodile%205.jpg?itok=Ahxwvo5h"}
{"name":"Auberge Tiegezh","stars":1,"street":"7 Place de la Gare","postalCode":"56380","city":"Guer","picture":"https://restaurant.michelin.fr/sites/mtpb2c_fr/files/styles/poi_detail_landscape/public/XBQlyeJydMT3hCwg.jpg?itok=jS6ZhZC8"}
{"name":"Le Chiquito","stars":1,"street":"3 r. de l'Oise, La Bonneville","postalCode":"95540","city":"Méry-sur-Oise","picture":"https://restaurant.michelin.fr/sites/mtpb2c_fr/files/styles/poi_detail_landscape/public/-fQWuFsDVzJ98TDA.jpg?itok=OYy7CO8l"}
{"name":"Au Déjeuner de Sousceyrac","stars":1,"street":"r. Pierre-Benoit","postalCode":"46190","city":"Sousceyrac","picture":"https://restaurant.michelin.fr/sites/mtpb2c_fr/files/styles/poi_detail_landscape/public/_aTZa-ZfXsiz3obQ.jpg?itok=CizfNA5z"}
{"name":"Cayola","stars":1,"street":"76 promenade de Cayola","postalCode":"85180","city":"Talmont-Saint-Hilaire","picture":"https://restaurant.michelin.fr/sites/mtpb2c_fr/files/styles/poi_detail_landscape/public/2hT3KcsTyWPcFkIg.jpg?itok=3jePx2n4"}
{"name":"Le Grand Cerf","stars":1,"street":"50 rte Nationale","postalCode":"51500","city":"Montchenot","picture":"https://restaurant.michelin.fr/sites/mtpb2c_fr/files/styles/poi_detail_landscape/public/rAQzWbNihA3-bvdw.jpg?itok=5d1Yoe-F"}
{"name":"Au Souper Fin","stars":1,"street":"1 rte de Clères","postalCode":"76690","city":"Frichemesnil","picture":"https://restaurant.michelin.fr/sites/mtpb2c_fr/files/styles/poi_detail_landscape/public/ihQuuXk5L-AruDeA.jpg?itok=Jdmwd9Op"}
{"name":"Michel Trama","stars":2,"street":"52 r. Royale","postalCode":"47270","city":"Puymirol","picture":"https://restaurant.michelin.fr/sites/mtpb2c_fr/files/styles/poi_detail_landscape/public/-ETbmUJqRbSn2kaA.jpg?itok=-EOIBcMq"}
{"name":"Le Moulin de l'Abbaye","stars":1,"street":"1 avenue Pierre de Bourdeilles","postalCode":"24310","city":"BRANTOME","picture":"https://restaurant.michelin.fr/sites/mtpb2c_fr/files/styles/poi_detail_landscape/public/VxQAeD1u55-WULVg.jpg?itok=F1oTYrVg"}
{"name":"Le Cercle","stars":1,"street":"44 bd Lahitolle","postalCode":"18000","city":"Bourges","picture":"https://restaurant.michelin.fr/sites/mtpb2c_fr/files/styles/poi_detail_landscape/public/8DROOL-dajZvd9EA.jpg?itok=dMevx2Ax"}
{"name":"Pont de l'Ouysse","stars":1,"street":"D23","postalCode":"46200","city":"Lacave","picture":"https://restaurant.michelin.fr/sites/mtpb2c_fr/files/styles/poi_detail_landscape/public/3971_1_0.jpg?itok=yKHJCF_T"}
{"name":"Le Lièvre Gourmand","stars":1,"street":"28 quai du Châtelet","postalCode":"45000","city":"Orléans","picture":"https://restaurant.michelin.fr/sites/mtpb2c_fr/files/styles/poi_detail_landscape/public/263097_1_1.jpg?itok=2ZAoOLe6"}
{"name":"La Grignotière","stars":1,"street":"6 Rue Jean Jaures","postalCode":"59590","city":"Raismes","picture":"https://restaurant.michelin.fr/sites/mtpb2c_fr/files/styles/poi_detail_landscape/public/6_29.jpg?itok=MLfZ4Ftw"}
{"name":"La Ribaudière","stars":1,"street":"2 pl. du Port","postalCode":"16200","city":"Bourg-Charente","picture":"https://restaurant.michelin.fr/sites/mtpb2c_fr/files/styles/poi_detail_landscape/public/rNT4uLx88dU9UVmg.jpg?itok=IcS-ifLe"}
{"name":"Xavier Mathieu","stars":1,"street":"Route de Murs","postalCode":"84220","city":"Joucas","picture":"https://restaurant.michelin.fr/sites/mtpb2c_fr/files/styles/poi_detail_landscape/public/1%20%281%29.JPG?itok=lXfQMoX2"}
{"name":"La Cachette","stars":1,"street":"Rue des Cévennes","postalCode":"26000","city":"Valence","picture":"https://restaurant.michelin.fr/sites/mtpb2c_fr/files/styles/poi_detail_landscape/public/WtQaO0P3ugIeJpCA.jpg?itok=hoyZSJ7S"}
{"name":"Le Clair de la Plume","stars":1,"street":"2 Place du Mail","postalCode":"26230","city":"Grignan","picture":"https://restaurant.michelin.fr/sites/mtpb2c_fr/files/styles/poi_detail_landscape/public/Le%20Clair%20de%20la%20Plume.jpg?itok=PeRjGxg4"}
{"name":"Le Jardin de Benjamin","stars":1,"street":"Route de Salernes","postalCode":"83510","city":"Lorgues","picture":"https://restaurant.michelin.fr/sites/mtpb2c_fr/files/styles/poi_detail_landscape/public/QCTgGCz4Z_tPAFXw.jpg?itok=3ARKfX0U"}
{"name":"Pertica","stars":1,"street":"15 pl. de la République","postalCode":"41100","city":"Vendôme","picture":"https://restaurant.michelin.fr/sites/mtpb2c_fr/files/styles/poi_detail_landscape/public/__QkuFm6IcAnHz_A.jpg?itok=d4jJbnVS"}
{"name":"Le Colombier","stars":1,"street":"r. Loucheur","postalCode":"76550","city":"Offranville","picture":"https://restaurant.michelin.fr/sites/mtpb2c_fr/files/styles/poi_detail_landscape/public/DHThqdX7snIKfEoA.jpg?itok=LSnY8GXP"}
{"name":"Le Bec au Cauchois","stars":1,"street":"22 Rue André Fiquet","postalCode":"76540","city":"Valmont","picture":"https://restaurant.michelin.fr/sites/mtpb2c_fr/files/styles/poi_detail_landscape/public/20170625_173730-min.jpg?itok=rv6_u0eq"}
{"name":"Domaine de Rochevilaine","stars":1,"street":"à la Pointe de Pen Lan","postalCode":"56190","city":"Billiers","picture":"https://restaurant.michelin.fr/sites/mtpb2c_fr/files/styles/poi_detail_landscape/public/uTRVG6WBIqWtH8Mw.jpg?itok=rdOeTVkI"}
{"name":"Nakatani","stars":1,"street":"27 Rue Pierre Leroux","postalCode":"75007","city":"PARIS","picture":"https://restaurant.michelin.fr/sites/mtpb2c_fr/files/styles/poi_detail_landscape/public/xISJCJ06RGnba80g.jpg?itok=dV0IyUL5"}
{"name":"Meurin","stars":2,"street":"Rue de Lillers","postalCode":"62350","city":"Busnes","picture":"https://restaurant.michelin.fr/sites/mtpb2c_fr/files/styles/poi_detail_landscape/public/6_103.jpg?itok=JpWhqJ-p"}
{"name":"L'Olivier","stars":1,"street":"25 Route des Carles","postalCode":"83990","city":"Saint-Tropez","picture":"https://restaurant.michelin.fr/sites/mtpb2c_fr/files/styles/poi_detail_landscape/public/L%27Olivier.jpg?itok=CQQOzMv1"}
{"name":"Sylvestre","stars":2,"street":"79 rue St-Dominique","postalCode":"75007","city":"Paris","picture":"https://restaurant.michelin.fr/sites/mtpb2c_fr/files/styles/poi_detail_landscape/public/c5S964HabTPBRxng.jpg?itok=veOn8mz4"}
{"name":"L'Atelier du Peintre","stars":1,"street":"1 Rue Schongauer","postalCode":"68000","city":"Colmar","picture":"https://restaurant.michelin.fr/sites/mtpb2c_fr/files/styles/poi_detail_landscape/public/P4180017.JPG?itok=9AEL40nh"}
{"name":"Septime","stars":1,"street":"80 r. de Charonne","postalCode":"75011","city":"Paris"}
{"name":"Michel Sarran","stars":2,"street":"21 bd A.-Duportal","postalCode":"31000","city":"Toulouse","picture":"https://restaurant.michelin.fr/sites/mtpb2c_fr/files/styles/poi_detail_landscape/public/8963_1_1.jpg?itok=ouNFud35"}
{"name":"Brikéténia","stars":1,"street":"142 r. de l'Église","postalCode":"64210","city":"Guéthary","picture":"https://restaurant.michelin.fr/sites/mtpb2c_fr/files/styles/poi_detail_landscape/public/235136_1_1.jpg?itok=c-33nz7V"}
{"name":"Auberge de la Mine","stars":1,"street":"le Gué-Plat","postalCode":"61450","city":"La Ferrière-aux-Étangs","picture":"https://restaurant.michelin.fr/sites/mtpb2c_fr/files/styles/poi_detail_landscape/public/RxTQetCHVYPauDzQ.jpg?itok=pESyIGMc"}
{"name":"La Villa Madie","stars":2,"street":"av. du Revestel","postalCode":"13260","city":"Cassis","picture":"https://restaurant.michelin.fr/sites/mtpb2c_fr/files/styles/poi_detail_landscape/public/_qRPqP2gkVrGc2JQ.jpg?itok=jgxO2XMz"}
{"name":"Meulien","stars":1,"street":"1 bis av. des Alpes","postalCode":"71700","city":"Tournus","picture":"https://restaurant.michelin.fr/sites/mtpb2c_fr/files/styles/poi_detail_landscape/public/115883_1_0.jpg?itok=OJPU3X1J"}
{"name":"Stéphane Tournié - Les Jardins de l'Opéra","stars":1,"street":"1 place du Capitole","postalCode":"31000","city":"Toulouse","picture":"https://restaurant.michelin.fr/sites/mtpb2c_fr/files/styles/poi_detail_landscape/public/5iTCaQbrzHh5ZZ0A.jpg?itok=kTZNYcrm"}
{"name":"Le Patio","stars":1,"street":"10 bd de la Plage","postalCode":"33120","city":"Arcachon","picture":"https://restaurant.michelin.fr/sites/mtpb2c_fr/files/styles/poi_detail_landscape/public/_4T6qkRc-A7SxFgA.jpg?itok=3eF3Pvun"}
{"name":"Le Bistrot de Lagarde","stars":1,"street":"rte d'Apt","postalCode":"84400","city":"Lagarde-d'Apt","picture":"https://restaurant.michelin.fr/sites/mtpb2c_fr/files/styles/poi_detail_landscape/public/U0TByAbC465lfV2A.jpg?itok=QHX9-s0O"}
{"name":"Relais Louis XIII","stars":1,"street":"8 Rue des Grands Augustins","postalCode":"75006","city":"Paris","picture":"https://restaurant.michelin.fr/sites/mtpb2c_fr/files/styles/poi_detail_landscape/public/Relais-louis-xiii.jpg?itok=cX8EB1Ba"}
{"name":"Hostellerie de Levernois","stars":1,"street":"15 r. du Golf","postalCode":"21200","city":"Levernois","picture":"https://restaurant.michelin.fr/sites/mtpb2c_fr/files/styles/poi_detail_landscape/public/1200x800%20levernois.jpg?itok=sN_jsAkc"}
{"name":"Château de Mercuès","stars":1,"street":"Route du Château","postalCode":"46090","city":"Mercuès","picture":"https://restaurant.michelin.fr/sites/mtpb2c_fr/files/styles/poi_detail_landscape/public/gVRoCCTQXHeUnShw.jpg?itok=X-pQL5LU"}
{"name":"Le Pressoir d'Argent - Gordon Ramsay","stars":2,"street":"2,5 Place de la Comédie","postalCode":"33000","city":"Bordeaux","picture":"https://restaurant.michelin.fr/sites/mtpb2c_fr/files/styles/poi_detail_landscape/public/jFQeqPUlrkDbPGlg.jpg?itok=aXsGSLNq"}
{"name":"Les Terrasses d'Uriage","stars":2,"street":"pl. Déesse-Hygie","postalCode":"38410","city":"Uriage-les-Bains","picture":"https://restaurant.michelin.fr/sites/mtpb2c_fr/files/styles/poi_detail_landscape/public/2vTgW8x9GZCFO4ag.jpg?itok=ZP4KzvpC"}
{"name":"Le Musigny","stars":1,"street":"90 Avenue de Liege","postalCode":"59300","city":"Valenciennes","picture":"https://restaurant.michelin.fr/sites/mtpb2c_fr/files/styles/poi_detail_landscape/public/9eJPHkhYTUS8UG3qj6iI6w.jpg?itok=oyEFS0_g"}
{"name":"Le Puits du Trésor","stars":1,"street":"21 rte des Quatre-Châteaux","postalCode":"11600","city":"Lastours","picture":"https://restaurant.michelin.fr/sites/mtpb2c_fr/files/styles/poi_detail_landscape/public/LmTiyfTzcb6wrUyA.jpg?itok=9rwB8iiY"}
{"name":"La Table de Chaintré","stars":1,"street":"72 pl. du Luminaire","postalCode":"71570","city":"Chaintré","picture":"https://restaurant.michelin.fr/sites/mtpb2c_fr/files/styles/poi_detail_landscape/public/KSQvWiZvcxcUVAew.jpg?itok=oa4zh3zX"}
{"name":"La Voile","stars":1,"street":"chemin de la Quessine","postalCode":"83350","city":"Ramatuelle","picture":"https://restaurant.michelin.fr/sites/mtpb2c_fr/files/styles/poi_detail_landscape/public/La%20Voile%201.jpg?itok=6Mr2UpIm"}
{"name":"Anne de Bretagne","stars":2,"street":"163, Boulevard de la Tara","postalCode":"44770","city":"La Plaine-sur-Mer","picture":"https://restaurant.michelin.fr/sites/mtpb2c_fr/files/styles/poi_detail_landscape/public/_D4S8064.jpg?itok=VQPNtg--"}
{"name":"L'Arôme","stars":1,"street":"3 rue St-Philippe-du-Roule","postalCode":"75008","city":"Paris 08","picture":"https://restaurant.michelin.fr/sites/mtpb2c_fr/files/styles/poi_detail_landscape/public/DSC_2229A.jpg?itok=Xw9xL3hv"}
{"name":"Pierre","stars":1,"street":"7-9 rue Joseph Dufour","postalCode":"71000","city":"Mâcon","picture":"https://restaurant.michelin.fr/sites/mtpb2c_fr/files/styles/poi_detail_landscape/public/OSTbeqvVvFgvgiHg.jpg?itok=c-h05KSb"}
{"name":"Le Gambetta","stars":1,"street":"12 r. Gambetta","postalCode":"49400","city":"Saumur","picture":"https://restaurant.michelin.fr/sites/mtpb2c_fr/files/styles/poi_detail_landscape/public/F9TEyU50ssMqbQxg.jpg?itok=hL_AQ1Bj"}
{"name":"La Table Breizh Café","stars":1,"street":"7 quai Thomas","postalCode":"35260","city":"Cancale","picture":"https://restaurant.michelin.fr/sites/mtpb2c_fr/files/styles/poi_detail_landscape/public/282070_1_0.jpg?itok=jMUFOHwv"}
{"name":"La Table","stars":1,"street":"32 Rue de la Barre","postalCode":"59000","city":"Lille","picture":"https://restaurant.michelin.fr/sites/mtpb2c_fr/files/styles/poi_detail_landscape/public/Facade-Ar-min.jpg?itok=N-tIsfuR"}
{"name":"La Scène","stars":1,"street":"33 Avenue George V","postalCode":"75008","city":"Paris","picture":"https://restaurant.michelin.fr/sites/mtpb2c_fr/files/styles/poi_detail_landscape/public/LIEU%20JAUNE%20DE%20%20LIGNE%20%281%29.jpg?itok=hNVOOYT5"}
{"name":"La Rotonde","stars":1,"street":"200 avenue du Casino","postalCode":"69890","city":"LA-TOUR-DE-SALVAGNY","picture":"https://restaurant.michelin.fr/sites/mtpb2c_fr/files/styles/poi_detail_landscape/public/0048CMJN.jpg?itok=aIW271kG"}
{"name":"Kei","stars":2,"street":"5 rue du Coq-Héron","postalCode":"75001","city":"Paris 01","picture":"https://restaurant.michelin.fr/sites/mtpb2c_fr/files/styles/poi_detail_landscape/public/RwTPChXR2pZw1K0Q.jpg?itok=FphfvMhr"}
{"name":"Le France","stars":1,"street":"8 place Cupillard","postalCode":"25130","city":"VILLERS-LE-LAC","picture":"https://restaurant.michelin.fr/sites/mtpb2c_fr/files/styles/poi_detail_landscape/public/1_261.jpg?itok=jvks752m"}
{"name":"Auberge au Boeuf","stars":1,"street":"Rue de l'Eglise","postalCode":"67770","city":"Sessenheim","picture":"https://restaurant.michelin.fr/sites/mtpb2c_fr/files/styles/poi_detail_landscape/public/cESXSOZNPRpw2-nw.jpg?itok=nKL3mITu"}
{"name":"La Closerie","stars":1,"street":"bd des Platanes","postalCode":"84240","city":"Ansouis","picture":"https://restaurant.michelin.fr/sites/mtpb2c_fr/files/styles/poi_detail_landscape/public/KCQ6uwhDslLcaC7w.jpg?itok=ncR6caG2"}
{"name":"Le Prieuré","stars":1,"street":"7, place du Chapitre","postalCode":"30400","city":"Villeneuve-lès-Avignon","picture":"https://restaurant.michelin.fr/sites/mtpb2c_fr/files/styles/poi_detail_landscape/public/Prieur%C3%A9%202.jpg?itok=lRO5uMVc"}
{"name":"Le Carrousel","stars":1,"street":"14 rue du Pont de Morge","postalCode":"63350","city":"MARINGUES","picture":"https://restaurant.michelin.fr/sites/mtpb2c_fr/files/styles/poi_detail_landscape/public/Le-Carrousel.jpg?itok=zWrCJjrd"}
{"name":"MaSa","stars":1,"street":"112 avenue Victor-Hugo","postalCode":"92100","city":"Boulogne-Billancourt","picture":"https://restaurant.michelin.fr/sites/mtpb2c_fr/files/styles/poi_detail_landscape/public/BUT6-9HlJ1I3ls-A.jpg?itok=zvxeIp0M"}
{"name":"Villa Archange","stars":2,"street":"Rue de l'Ouest","postalCode":"06110","city":"Le Cannet","picture":"https://restaurant.michelin.fr/sites/mtpb2c_fr/files/styles/poi_detail_landscape/public/XCRuoZpTRxuXvS8drwnDBA.jpg?itok=TbA4yS4C"}
{"name":"Ithurria","stars":1,"street":"pl. du Fronton","postalCode":"64250","city":"Ainhoa","picture":"https://restaurant.michelin.fr/sites/mtpb2c_fr/files/styles/poi_detail_landscape/public/qqRry9ZLZ6AVBVEQ.jpg?itok=m6aejUZq"}
{"name":"Le Cap","stars":1,"street":"71 Boulevard du Général-de-Gaulle","postalCode":"06230","city":"SAINT-JEAN-CAP-FERRAT","picture":"https://restaurant.michelin.fr/sites/mtpb2c_fr/files/styles/poi_detail_landscape/public/fiRD2m77Uumwq13Q.jpg?itok=uLmBZBza"}
{"name":"La Grande Maison de Bernard Magrez","stars":2,"street":"10 Rue Labottière","postalCode":"33000","city":"Bordeaux","picture":"https://restaurant.michelin.fr/sites/mtpb2c_fr/files/styles/poi_detail_landscape/public/20_7.jpg?itok=wOvCHWJp"}
{"name":"Maison Clovis","stars":1,"street":"19 bd Brotteaux","postalCode":"69006","city":"Lyon","picture":"https://restaurant.michelin.fr/sites/mtpb2c_fr/files/styles/poi_detail_landscape/public/QSRWSv7f5USpKnjg.jpg?itok=g1uGupu2"}
{"name":"Le Manoir du Lys","stars":1,"street":"D235","postalCode":"61140","city":"Bagnoles-de-l'Orne","picture":"https://restaurant.michelin.fr/sites/mtpb2c_fr/files/styles/poi_detail_landscape/public/10110_1_0.jpg?itok=-ywBkO7x"}
{"name":"La Gouesnière","stars":1,"street":"1 Le Limonay","postalCode":"35350","city":"Saint-Méloir-des-Ondes","picture":"https://restaurant.michelin.fr/sites/mtpb2c_fr/files/styles/poi_detail_landscape/public/nZS3iVjr8In9izYQ.jpg?itok=df9kkSQa"}
{"name":"Villa René Lalique","stars":2,"street":"18 Rue Bellevue","postalCode":"67290","city":"Wingen-sur-Moder","picture":"https://restaurant.michelin.fr/sites/mtpb2c_fr/files/styles/poi_detail_landscape/public/DOSgmN4O9HQufJIA.jpg?itok=d9KNiIrV"}
{"name":"Les Hautes Roches","stars":1,"street":"86 quai de Loire","postalCode":"37210","city":"Rochecorbon","picture":"https://restaurant.michelin.fr/sites/mtpb2c_fr/files/styles/poi_detail_landscape/public/OHSDybfUWCLKzFtA.jpg?itok=0Jc6nutL"}
{"name":"La Fourchette des Ducs","stars":2,"street":"6 r. de la Gare","postalCode":"67210","city":"Obernai","picture":"https://restaurant.michelin.fr/sites/mtpb2c_fr/files/styles/poi_detail_landscape/public/yRT1a_IH4vhmo9Ag.jpg?itok=JMBB68ne"}
{"name":"Alain Ducasse au Plaza Athénée","stars":3,"street":"25 avenue Montaigne","postalCode":"75008","city":"Paris","picture":"https://restaurant.michelin.fr/sites/mtpb2c_fr/files/styles/poi_detail_landscape/public/Plaza-Athenee-Alain-Ducasse-au-Plaza-Athenee-%28c%29-Pierre-Monetta-2-min.jpg?itok=moW7xpXR"}
{"name":"Relais de la Poste","stars":2,"street":"24 avenue de Maremne","postalCode":"40140","city":"Magescq","picture":"https://restaurant.michelin.fr/sites/mtpb2c_fr/files/styles/poi_detail_landscape/public/bar%20002-min.jpg?itok=GxyAw18A"}
{"name":"Le Pré du Moulin","stars":1,"street":"rte de Ste-Cécile-les-Vignes","postalCode":"84830","city":"Sérignan-du-Comtat","picture":"https://restaurant.michelin.fr/sites/mtpb2c_fr/files/styles/poi_detail_landscape/public/1mS3yA5ylwrSZHkg.jpg?itok=2ozSGWzF"}
{"name":"La Grande Cascade","stars":1,"street":"Bois de Boulogne, Carrefour de Longchamp","postalCode":"75016","city":"Paris","picture":"https://restaurant.michelin.fr/sites/mtpb2c_fr/files/styles/poi_detail_landscape/public/2YRLO_xohfHn9mtw.jpg?itok=Tg8B3oUX"}
{"name":"Château de Sully","stars":1,"street":"D6","postalCode":"14400","city":"Sully","picture":"https://restaurant.michelin.fr/sites/mtpb2c_fr/files/styles/poi_detail_landscape/public/RqT-OnItIbd3m6lA.jpg?itok=LHMudD3H"}
{"name":"L'Essentiel","stars":1,"street":"29 Rue Mirabeau","postalCode":"14800","city":"DEAUVILLE","picture":"https://restaurant.michelin.fr/sites/mtpb2c_fr/files/styles/poi_detail_landscape/public/X-Qsizcm8-awNLRw.jpg?itok=xRSxtBQx"}
{"name":"Le Bénaton","stars":1,"street":"25 Rue du Faubourg-Bretonnière","postalCode":"21200","city":"BEAUNE","picture":"https://restaurant.michelin.fr/sites/mtpb2c_fr/files/styles/poi_detail_landscape/public/WKQAypn3vWbhu87Q.jpg?itok=VSy2MnMS"}
{"name":"La Vague d'Or","stars":3,"street":"Plage de Bouillabaisse","postalCode":"83990","city":"Saint-Tropez","picture":"https://restaurant.michelin.fr/sites/mtpb2c_fr/files/styles/poi_detail_landscape/public/X0T_-sDhTHHmDU4g.jpg?itok=LhIFjK7e"}
{"name":"La Matelote","stars":1,"street":"80 Boulevard Ste Beuve","postalCode":"62200","city":"BOULOGNE-SUR-MER","picture":"https://restaurant.michelin.fr/sites/mtpb2c_fr/files/styles/poi_detail_landscape/public/La%20Matelote%20Boulogne%20sur%20mer%20-%20AVRIL%202017%20%281%29.jpg?itok=VGlMWA3k"}
{"name":"Rackham","stars":1,"street":"27 pl. Lacaze Duthiers rčs de l'église","postalCode":"29680","city":"ROSCOFF","picture":"https://restaurant.michelin.fr/sites/mtpb2c_fr/files/styles/poi_detail_landscape/public/9FTKCK7Mi2xOTeUg.jpg?itok=PX8NLcCv"}
{"name":"Aux Anges","stars":1,"street":"6 Place Georges Clemenceau","postalCode":"42300","city":"Roanne","picture":"https://restaurant.michelin.fr/sites/mtpb2c_fr/files/styles/poi_detail_landscape/public/mZRcOEgedf2R-raA.jpg?itok=qFmIT51E"}
{"name":"Garopapilles","stars":1,"street":"62 r. Abbé-de-L'Epée","postalCode":"33000","city":"Bordeaux"}
{"name":"Pertinence","stars":1,"street":"29 r. de l'Exposition","postalCode":"75007","city":"Paris"}
{"name":"U Santa Marina","stars":1,"street":"Marina di Santa Giulia","postalCode":"20137","city":"Porto-Vecchio"}
{"name":"Pèir","stars":1,"street":"r. de la Combe","postalCode":"84220","city":"Gordes"}
{"name":"Le Pavillon","stars":1,"street":"av. du Verger","postalCode":"62520","city":"Le Touquet-Paris-Plage","picture":"https://restaurant.michelin.fr/sites/mtpb2c_fr/files/styles/poi_detail_landscape/public/9000_1_0.jpg?itok=BnxB9Z0T"}
{"name":"Tour d'Argent","stars":1,"street":"15 quai de la Tournelle","postalCode":"75005","city":"Paris","picture":"https://restaurant.michelin.fr/sites/mtpb2c_fr/files/styles/poi_detail_landscape/public/5908_1_0.jpg?itok=OzFIQsbx"}
{"name":"Le Pousse-Pied","stars":1,"street":"84 bd des Vendéens","postalCode":"85360","city":"La Tranche-sur-Mer"}
{"name":"La Gloire","stars":1,"street":"74 av. du Gén.-de-Gaulle","postalCode":"45200","city":"Montargis","picture":"https://restaurant.michelin.fr/sites/mtpb2c_fr/files/styles/poi_detail_landscape/public/4919_1_1.jpg?itok=netV9fKQ"}
{"name":"Le Chateaubriand","stars":1,"street":"129 av. Parmentier","postalCode":"75011","city":"Paris"}
{"name":"Château du Mont Joly","stars":1,"street":"6 r. du Mont-Joly","postalCode":"39100","city":"Sampans","picture":"https://restaurant.michelin.fr/sites/mtpb2c_fr/files/styles/poi_detail_landscape/public/LoQNiqjlRxeHPX1Q.jpg?itok=fltZaxCj"}
{"name":"La Ville Blanche","stars":1,"street":"La Ville Blanche","postalCode":"22300","city":"Rospez","picture":"https://restaurant.michelin.fr/sites/mtpb2c_fr/files/styles/poi_detail_landscape/public/4026_3_0.jpg?itok=C90Deo1G"}
{"name":"Auberge St-Jean","stars":1,"street":"8 r. du Pont","postalCode":"33420","city":"Saint-Jean-de-Blaignac","picture":"https://restaurant.michelin.fr/sites/mtpb2c_fr/files/styles/poi_detail_landscape/public/7924_1_0.jpg?itok=JDopw2dx"}
{"name":"Vieux Pont","stars":1,"street":"","postalCode":"12390","city":"Belcastel","picture":"https://restaurant.michelin.fr/sites/mtpb2c_fr/files/styles/poi_detail_landscape/public/959_1_0.jpg?itok=gqdP-0r5"}
{"name":"Jérémy Galvan","stars":1,"street":"Rue du Boeuf","postalCode":"69005","city":"Lyon 05","picture":"https://restaurant.michelin.fr/sites/mtpb2c_fr/files/styles/poi_detail_landscape/public/DSC_0614.JPG?itok=WuGT-MxM"}
{"name":"Garance","stars":1,"street":"34 r. St-Dominique","postalCode":"75007","city":"Paris"}
{"name":"La Coquerie","stars":1,"street":"1 chemin du Cimetière-Marin","postalCode":"34200","city":"Sète","picture":"https://restaurant.michelin.fr/sites/mtpb2c_fr/files/styles/poi_detail_landscape/public/FbQIufckPh7rG_aw.jpg?itok=9YHPdZiT"}
{"name":"Miraflores","stars":1,"street":"60 r. Garibaldi","postalCode":"69006","city":"Lyon","picture":"https://restaurant.michelin.fr/sites/mtpb2c_fr/files/styles/poi_detail_landscape/public/8AT2i2pfDVN5Ebxw.jpg?itok=ulo6zARl"}
{"name":"Le Pily","stars":1,"street":"39 Grande-Rue","postalCode":"50100","city":"Cherbourg-en-Cotentin","picture":"https://restaurant.michelin.fr/sites/mtpb2c_fr/files/styles/poi_detail_landscape/public/201088_1_0.jpg?itok=748V55ME"}
{"name":"Le Jules Verne","stars":1,"street":"2<E>ème</E> étage Tour Eiffel","postalCode":"75007","city":"Paris","picture":"https://restaurant.michelin.fr/sites/mtpb2c_fr/files/styles/poi_detail_landscape/public/5988_1_1.jpg?itok=i3XN8qG6"}
{"name":"Le Grand Restaurant - Jean-François Piège","stars":2,"street":"7 r. d'Aguesseau","postalCode":"75008","city":"Paris","picture":"https://restaurant.michelin.fr/sites/mtpb2c_fr/files/styles/poi_detail_landscape/public/f4RxSbUPlc4wb8KQ.jpg?itok=MQfJc0H5"}
{"name":"La Marande","stars":1,"street":"lieu-dit Mirande","postalCode":"71260","city":"Montbellet","picture":"https://restaurant.michelin.fr/sites/mtpb2c_fr/files/styles/poi_detail_landscape/public/41438_1_1.jpg?itok=JfXusPwd"}
{"name":"Le Belvédère","stars":1,"street":"11 rte du Maquis-Jean-Pierre","postalCode":"12340","city":"Bozouls","picture":"https://restaurant.michelin.fr/sites/mtpb2c_fr/files/styles/poi_detail_landscape/public/3PR1y3PvAs5c6ouQ.jpg?itok=ap9A6wVH"}
{"name":"Le Park 45","stars":1,"street":"45 bd de la Croisette","postalCode":"06400","city":"Cannes"}
{"name":"Au 14 Février","stars":1,"street":"36 r. du Bœuf","postalCode":"","city":"Lyon 05","picture":"https://restaurant.michelin.fr/sites/mtpb2c_fr/files/styles/poi_detail_landscape/public/281900_1_1.jpg?itok=Fx9PucTn"}
{"name":"David Toutain","stars":1,"street":"29 r. Surcouf","postalCode":"75007","city":"Paris"}
{"name":"Le Village","stars":1,"street":"3 Grande-Rue","postalCode":"78160","city":"Marly-le-Roi","picture":"https://restaurant.michelin.fr/sites/mtpb2c_fr/files/styles/poi_detail_landscape/public/WpQgmrHMdJblSe2w.jpg?itok=Dx7lm4Vz"}
{"name":"Le Prieuré","stars":1,"street":"r. de la Mairie","postalCode":"42820","city":"Ambierle"}
{"name":"Côté Jardin","stars":1,"street":"14 rte de Bourges","postalCode":"45500","city":"Gien"}
{"name":"La Rastègue","stars":1,"street":"48 bd du Levant","postalCode":"83230","city":"Bormes-les-Mimosas","picture":"https://restaurant.michelin.fr/sites/mtpb2c_fr/files/styles/poi_detail_landscape/public/49494_1_0.jpg?itok=8MnYx8cv"}
{"name":"L'Atlantide 1874 - Maison Guého","stars":1,"street":"5 r. de l'Hermitage","postalCode":"44100","city":"Nantes","picture":"https://restaurant.michelin.fr/sites/mtpb2c_fr/files/styles/poi_detail_landscape/public/5270_1_0.jpg?itok=L4RZqdX-"}
{"name":"Le Foch","stars":1,"street":"37 bd Foch","postalCode":"51100","city":"Reims","picture":"https://restaurant.michelin.fr/sites/mtpb2c_fr/files/styles/poi_detail_landscape/public/7282_1_0.jpg?itok=zD_2I_fe"}
{"name":"Auberge du Dun","stars":1,"street":"3 rte de Dieppe","postalCode":"76740","city":"Le Bourg-Dun","picture":"https://restaurant.michelin.fr/sites/mtpb2c_fr/files/styles/poi_detail_landscape/public/1310_4_0.jpg?itok=QAnyVzSm"}
{"name":"Château de Vauchoux","stars":1,"street":"","postalCode":"70170","city":"Vauchoux"}
{"name":"Rodolphe","stars":1,"street":"35 r. Percière","postalCode":"76000","city":"Rouen","picture":"https://restaurant.michelin.fr/sites/mtpb2c_fr/files/styles/poi_detail_landscape/public/VZQPa36_PsqnWqUg.jpg?itok=__3OeG6U"}
{"name":"Le Bon Accueil","stars":1,"street":"32 Grande-Rue","postalCode":"25160","city":"Malbuisson","picture":"https://restaurant.michelin.fr/sites/mtpb2c_fr/files/styles/poi_detail_landscape/public/BZRLaClPvpyRSWsw.jpg?itok=un4aSiLP"}
{"name":"Aux Terrasses","stars":1,"street":"18 av. du 23-Janvier","postalCode":"71700","city":"Tournus","picture":"https://restaurant.michelin.fr/sites/mtpb2c_fr/files/styles/poi_detail_landscape/public/9032_1_0.jpg?itok=coD4Nxr5"}
{"name":"Mon Plaisir","stars":1,"street":"22 lieu-dit Journal","postalCode":"25190","city":"Chamesol","picture":"https://restaurant.michelin.fr/sites/mtpb2c_fr/files/styles/poi_detail_landscape/public/23290_1_0.jpg?itok=Hz4TVZVV"}
{"name":"La Table des Cordeliers","stars":1,"street":"1 r. des Cordeliers","postalCode":"32100","city":"Condom"}
{"name":"La Table d'Eugène","stars":1,"street":"18 r. Eugène-Sue","postalCode":"75018","city":"Paris","picture":"https://restaurant.michelin.fr/sites/mtpb2c_fr/files/styles/poi_detail_landscape/public/QqQWaRrPnovQ2L-g.jpg?itok=Xl7qFvEk"}
{"name":"Le Marcq","stars":1,"street":"944 av. de la République","postalCode":"59700","city":"Marcq-en-Barœul"}
{"name":"Le Favre d'Anne","stars":1,"street":"21 bd du Mar.-Foch","postalCode":"49000","city":"Angers","picture":"https://restaurant.michelin.fr/sites/mtpb2c_fr/files/styles/poi_detail_landscape/public/OFS6aavsPZtV5Y7A.jpg?itok=8vzBg98g"}
{"name":"Auberge du Paradis","stars":1,"street":"Le Plâtre-Durand","postalCode":"71570","city":"Saint-Amour-Bellevue"}
{"name":"Le Moulin d'Alotz","stars":1,"street":"chemin Alotz-Errota","postalCode":"64200","city":"Alotz","picture":"https://restaurant.michelin.fr/sites/mtpb2c_fr/files/styles/poi_detail_landscape/public/MZT2ylNdOf_XvfuA.jpg?itok=kLPojVKp"}
{"name":"Le Cerf","stars":1,"street":"30 r. du Gén.-de-Gaulle","postalCode":"67520","city":"Marlenheim","picture":"https://restaurant.michelin.fr/sites/mtpb2c_fr/files/styles/poi_detail_landscape/public/BhREqM95c_RORF4A.jpg?itok=e7QBGddU"}
{"name":"Étincelles - La Gentilhommière","stars":1,"street":"","postalCode":"24440","city":"Sainte-Sabine"}
{"name":"Le Camélia","stars":1,"street":"7 quai Georges Clemenceau","postalCode":"78380","city":"Bougival","picture":"https://restaurant.michelin.fr/sites/mtpb2c_fr/files/styles/poi_detail_landscape/public/JARA6Z_RrVlovuOw.jpg?itok=nBs_1WKw"}
{"name":"L'Émulsion","stars":1,"street":"57 rte de Lyon","postalCode":"38080","city":"Saint-Alban-de-Roche","picture":"https://restaurant.michelin.fr/sites/mtpb2c_fr/files/styles/poi_detail_landscape/public/Lemulsion.jpg?itok=qymjclXs"}
{"name":"Le Clos St-Pierre","stars":1,"street":"pl. de la Mairie","postalCode":"06650","city":"Le Rouret"}
{"name":"La Table by La Villa","stars":1,"street":"chemin de Notre-Dame-de-la-Serra","postalCode":"20260","city":"Calvi"}
{"name":"Palégrié","stars":1,"street":"Les Ritons","postalCode":"38250","city":"Corrençon-en-Vercors"}
{"name":"Auberge du Vert Mont","stars":1,"street":"1318 r. du Mont-Noir","postalCode":"59299","city":"Boeschepe"}
{"name":"Racine","stars":1,"street":"6 pl. Godinot","postalCode":"51100","city":"Reims","picture":"https://restaurant.michelin.fr/sites/mtpb2c_fr/files/styles/poi_detail_landscape/public/bnRFei6A0XF6NOKQ.jpg?itok=WJtyrfO6"}
{"name":"L'Aubergade","stars":1,"street":"78 rte Nationale","postalCode":"80480","city":"Dury","picture":"https://restaurant.michelin.fr/sites/mtpb2c_fr/files/styles/poi_detail_landscape/public/qxSROtP3UPUpq8uw.jpg?itok=eQWmTC_n"}
